,ID,Isconfidential,ProjectName,Street,City,State,Zipcode,Country,LEEDSystemVersionDisplayName,PointsAchieved,CertLevel,CertDate,IsCertified,OwnerTypes,GrossSqFoot,TotalPropArea,ProjectTypes,OwnerOrganization,RegistrationDate
55568,1000002936,No,SCHNEIDER ELECTRIC TRANSFORMER FACTORY,TOSB Cayirova Kocaeli,Kocaeli,Kocaeli,41480,TR,LEED-NC v2009,61.0,Gold,9/12/11 0:00,Yes,Corporate: Privately Held,368011.0,749276.0,Industrial Manufacturing,SCHNEIDER ENERGY INDUSTRY A.S.,12/9/09 0:00
55980,1000003448,No,Li Fung Centre,Yenibosna,Istanbul,Istanbul,34550,TR,LEED-NC v2009,54.0,Silver,7/17/11 0:00,Yes,Corporate: Privately Held,86013.0,184290.0,Office: Administrative/Professional,Li Fung,12/25/09 0:00
56020,1000003493,No,ESER HOLDING HEADQUARTERS,Turan Gunes Bulv. Cezayir Cad. 718. Sokak No:14,Ankara,Ankara,6550,TR,LEED-NC v2009,92.0,Platinum,2/14/11 0:00,Yes,Corporate: Privately Held,75039.0,25241.0,Office: Administrative/Professional,Eser Holding,12/29/09 0:00
58487,1000006498,No,GELAL SOCKS FACTORY,Sabanozu Organize Sanayi Bolgesi,CANKIRI,Cankiri,18650,TR,LEED-NC v2009,60.0,Gold,8/28/13 0:00,Yes,Corporate: Privately Held,71683.6,71688.0,Industrial Manufacturing,GELAL CORAP,5/18/10 0:00
60401,1000008803,No,BAYLO SUITES,Galata Kulesi Sokak No. 24 Beyoglu,Istanbul,Istanbul,34420,TR,LEED-NC v2009,55.0,Silver,6/7/11 0:00,Yes,Corporate: Privately Held,3550.8,592.0,Multi-Family Residential: Apartment,Zemin Yatirim,8/19/10 0:00
60677,1000009147,No,BASF CONSTRUCTION CHEMICALS LABORATORIES,"GOSB, Ihsan Dede Cad. 1000.Sok. 41480 Gebze/Kocaeli",Gebze,Kocaeli,41480,TR,LEED-NC v2009,83.0,Platinum,8/18/11 0:00,Yes,Corporate: Privately Held,51408.76,123245.0,Warehouse and Distribution Center: Warehouse,BASF TURK,9/6/10 0:00
62045,1000010780,No,Renaissance Istanbul Bosphorus Hotel,Gayrettepe Mah. Barbaros Bulvari No 145 Besiktas / Turkey,Istanbul,Istanbul,34349,TR,LEED-NC v2009,71.0,Gold,7/6/13 0:00,Yes,Corporate: Privately Held,363982.0,37400.0,"Lodging: Hotel/Motel/Resort, Full Service",Polat Turizm A.S.,11/9/10 0:00
63739,1000013005,No,BIRLESIM ENG PRDCTN-ADMIN BUILDING,Dudullu Organize Sanayii Bolgesi,ISTANBUL,Istanbul,34775,TR,LEED-NC v2009,64.0,Gold,6/22/12 0:00,Yes,Corporate: Privately Held,65528.74,49466.0,Industrial Manufacturing,Birlesim Engineering & Construction,2/14/11 0:00
66772,1000016789,No,CELIKEL TAYSAD FACTORY,Taysad OSB 14. Yol No:6,Kocaeli,Kocaeli,41420,TR,LEED-NC v2009,58.0,Silver,2/5/13 0:00,Yes,Corporate: Privately Held,248382.6,215315.0,Service: Other Service,CELIKEL ALUMINUM,6/29/11 0:00
67513,1000017745,No,METHOD RESEARCH COMPANY,USKUDAR ALTUNIZADE MAH.,USKUDAR,Istanbul,34674,TR,LEED-NC v2009,69.0,Gold,3/13/12 0:00,Yes,Corporate: Privately Held,20897.85,4951.0,Office: Administrative/Professional,METHOD RESEARCH COMPANY,8/10/11 0:00
71409,1000022888,No,ANDROMEDA GOLD RESIDENCE ATASEHIR,Ataturk Mahallesi Meric Cad. No. 3-1A/B 2445 Ada 2 Parsel,Istanbul,Istanbul,34758,TR,LEED-NC v2009,61.0,Gold,11/21/13 0:00,Yes,Corporate: Privately Held,767800.46,190039.0,Multi-Family Residential: Condominium,Akdeniz Insaat Ve Egitim Hizmetleri A.S.,3/6/12 0:00
71610,1000023142,No,Nispetiye ON,Nispetiye Mah. 39 Pafta 395 Ada 29 Parsel,Istanbul,Istanbul,34340,TR,LEED-NC v2009,42.0,,,No,Corporate: Privately Held,238237.0,50410.0,Multi-Family Residential: Condominium,Atlas-Renkyol-Birincioglu JV,3/16/12 0:00
73158,1000025069,No,SOYAK SOHO,ESENTEPE MAH. MUSELLES SOK. NO:15 34394,Istanbul,Istanbul,34394,TR,LEED-NC v2009,63.0,Gold,8/7/14 0:00,Yes,Corporate: Privately Held,177300.0,37940.0,Multi-Family Residential: Apartment,Soyak YAPI,6/1/12 0:00
73159,1000025071,No,SOYAK MAVISEHIR OPTIMUS FIRST,Yali Mahallesi 6523 Sk. No: 30 35550 Karsiyaka-IZMIR,IZMIR,Izmir,35550,TR,LEED-NC v2009,64.0,Gold,2/26/15 0:00,Yes,Corporate: Privately Held,714209.85,215020.0,Multi-Family Residential: Condominium,Soyak YAPI,6/1/12 0:00
73160,1000025072,No,SOYAK MAVISEHIR OPTIMUS GOLD,Yali Mahallesi 6523 Sk. No: 30 35550 Karsiyaka-IZMIR,Izmir,Izmir,35550,TR,LEED-NC v2009,63.0,Gold,3/30/15 0:00,Yes,Corporate: Privately Held,372302.56,186775.0,Multi-Family Residential: Condominium,Soyak Yapi,6/1/12 0:00
74071,1000026213,No,SIF Regional Administrative Office,Ivedik Mah. 1524. Cad. No: 59,Ankara,Ankara,6378,TR,LEED-NC v2009,70.0,Gold,5/7/14 0:00,Yes,Corporate: Privately Held,35596.0,27771.0,Office: Mixed-Use,SIF,7/25/12 0:00
74336,1000026533,No,UNILEVER TAS KONYA ICE CREAM PLANT,"Konya Buyukkayacik OSB, Aksaray Cevre Yolu",Konya,Konya,42050,TR,LEED-NC v2009,54.0,Silver,7/11/14 0:00,Yes,Corporate: Privately Held,528777.0,3204362.0,Industrial Manufacturing,Unilever San. Ve Tic. TAS.,8/9/12 0:00
74546,1000026780,No,TURK TRAKTOR-WAREHOUSE/ASSEMBLY BUILDING,"Sakarya Ili, Erenler Ilcesi",Sakarya,Sakarya,54200,TR,LEED-NC v2009,61.0,Gold,6/12/14 0:00,Yes,Corporate: Privately Held,505144.0,2145088.0,Industrial Manufacturing,Turk Traktor Ve Ziraat Makineleri A.S,8/23/12 0:00
74547,1000026781,No,TURK TRAKTOR-SOCIAL FACILITY,"Sakarya Ili, Erenler Ilcesi",Sakarya,Sakarya,54200,TR,LEED-NC v2009,66.0,Gold,6/12/14 0:00,Yes,Corporate: Privately Held,90061.1,2415088.0,Service: Other Service,Turk Traktor Ve Ziraat Makineleri A.S,8/23/12 0:00
75102,1000027544,No,Eskisehir Bademlik SPA and Thermal Hotel,Bademlik Eskisehir,Eskisehir,Eskisehir,26040,TR,LEED-NC v2009,60.0,Gold,10/6/14 0:00,Yes,Corporate: Privately Held,373270.0,310000.0,"Lodging: Hotel/Motel/Resort, Full Service",Polimeks Construction,9/28/12 0:00
76492,1000029405,No,IZMIR ADNAN MENDERES AIRPORT TERMINAL,Izmir Adnan Menderes Yeni Terminal,Izmir,Izmir,35410,TR,LEED-NC v2009,42.0,,,No,Corporate: Privately Held,2071837.0,1414345.0,Office: Other Office,TAV AIRPORTS,12/26/12 0:00
76654,1000029628,No,ERKE GREEN ACADEMY,Hanimseti Street No:5,Istanbul,Istanbul,34692,TR,LEED-NC v2009,82.0,Platinum,9/6/13 0:00,Yes,Corporate: Privately Held,3735.0,2476.0,Office: Administrative/Professional,ERKE,1/8/13 0:00
77431,1000030653,No,GELAL SOCKS SOCIAL FACILITY,Sabanozu Organize Sanayi Bolgesi,Cankiri,Cankiri,18650,TR,LEED-NC v2009,53.0,Silver,8/28/13 0:00,Yes,Corporate: Privately Held,29435.77,10129.0,Industrial Manufacturing,Gelal Corap,2/19/13 0:00
77803,1000031156,No,Sisecam ARGE Building,Gebze,Kocaeli,Kocaeli,34000,TR,LEED-NC v2009,76.0,Gold,10/2/14 0:00,Yes,Corporate: Privately Held,88060.0,75972.0,Laboratory,Turkiye Sise Ve Cam Fabrikalari A.S.,3/8/13 0:00
78615,1000032252,No,TEPE BETOPAN FACTORY,Beytepe Koyu Yolu No:5,Ankara,Ankara,6530,TR,LEED-NC v2009,60.0,Gold,12/23/14 0:00,Yes,Corporate: Privately Held,188239.1,691904.0,Industrial Manufacturing,TEPE BETOPAN,4/25/13 0:00
78751,1000032425,No,Regnum Carya Resort Hotel Building,Belek Antalya Turkey,Antalya,Antalya,1000,TR,LEED-NC v2009,66.0,Gold,4/16/15 0:00,Yes,Corporate: Privately Held,1075831.0,1220056.0,"Lodging: Hotel/Motel/Resort, Full Service",Regnum Hotels,5/2/13 0:00
79378,1000033230,No,Tupras RD Management Building,Tupras - Izmit,Kocaeli,Kocaeli,41790,TR,LEED-NC v2009,60.0,Gold,5/28/14 0:00,Yes,Corporate: Privately Held,48486.0,46984.0,Office: Administrative/Professional,Tupras,6/6/13 0:00
81863,1000036673,No,TUPRAS Refinery Central Control Building,Guney Mah. Petrol Cad. No:25 41790 Korfez,Kocaeli,Kocaeli,41790,TR,LEED-NC v2009,62.0,Gold,12/3/14 0:00,Yes,Corporate: Privately Held,54500.0,132850.0,Office: Administrative/Professional,Tupras Refineries Co,10/30/13 0:00
82069,1000036953,No,TEPE PREFABRIK FACTORY,Beytepe Koyu Yolu No:5,Ankara,Ankara,6530,TR,LEED-NC v2009,60.0,Gold,7/16/14 0:00,Yes,Corporate: Privately Held,128316.5,241552.0,Industrial Manufacturing,TEPE PREFABRIK,11/11/13 0:00
94271,1000052781,No,IMES SHERATON,IMES Sanayi Sitesi 504. Sokak No:43,Istanbul,Istanbul,34776,TR,LEED-NC v2009,48.0,Certified,6/2/15 0:00,Yes,Corporate: Privately Held,171342.63,,"Lodging: Hotel/Motel/Resort, Full Service",Ferko Insaat,12/4/14 0:00
