,ID,Isconfidential,ProjectName,Street,City,State,Zipcode,Country,LEEDSystemVersionDisplayName,PointsAchieved,CertLevel,CertDate,IsCertified,OwnerTypes,GrossSqFoot,TotalPropArea,ProjectTypes,OwnerOrganization,RegistrationDate
53548,1000000194,No,Kyra InfoTech,4454 Florida National Drive,Lakeland,FL,33813,US,LEED-NC v2009,44.0,Certified,8/23/11 0:00,Yes,Corporate: Privately Held,3472.0,10905.0,Commercial Office,PPRKR LLC,5/12/09 0:00
53708,1000000451,No,Office Building,192 Route 22 West,Green Brook,NJ,8812,US,LEED-NC v2009,50.0,Silver,7/15/14 0:00,Yes,Corporate: Privately Held,8068.0,20300.0,Office: Administrative/Professional,Cyzner Properties,6/8/09 0:00
53844,1000000732,No,Carolina Ingredients,1595 Cedar Line Drive,Rock Hill,SC,29730,US,LEED-NC v2009,53.0,Silver,5/21/10 0:00,Yes,Corporate: Privately Held,56000.0,283140.0,Industrial Manufacturing,"Optima Engineering, PA",6/29/09 0:00
54104,1000001059,No,Delta Corporate Headquarters,860 Hooper Road,Endwell,NY,13760,US,LEED-NC v2009,62.0,Gold,11/18/10 0:00,Yes,Corporate: Privately Held,36266.0,119100.0,Office: Administrative/Professional,"Delta Realty Holding, LLC",7/29/09 0:00
54155,1000001129,No,Rocky Mountain Innosphere,300 East Vine,Fort Collins,CO,80524,US,LEED-NC v2009,91.0,Platinum,6/23/11 0:00,Yes,Corporate: Privately Held,32260.0,176971.0,Office: Mixed-Use,Rocky Mountain Innosphere,8/5/09 0:00
54225,1000001213,No,DLR Group Nebraska Office Building,6457 Frances Street,Omaha,NE,68106,US,LEED-NC v2009,60.0,Gold,7/7/14 0:00,Yes,Corporate: Privately Held,40482.0,40563.0,Commercial Office,DLR AK5 LLC,8/13/09 0:00
54277,1000001271,No,CareCore Headquarters Building,1 CareCore Drive,Bluffton,SC,29910,US,LEED-NC v2009,40.0,Certified,4/4/13 0:00,Yes,Corporate: Privately Held,31150.0,72234.0,Office: Administrative/Professional,"Carecore National, LLC",8/20/09 0:00
54372,1000001386,No,Wauna Federal Credit Union,52381 S. Columbia River Highway,Scappoose,OR,97056,US,LEED-NC v2009,54.0,Silver,8/18/11 0:00,Yes,Corporate: Privately Held,2190.0,11158.0,Financial & Comm.,"Kessi Asset Management, LLC",8/28/09 0:00
54384,1000001405,No,426 A Street Project,426 A St.,Ashland,OR,97520,US,LEED-NC v2009,64.0,Gold,3/24/14 0:00,Yes,Corporate: Privately Held,3992.0,6092.0,Retail,"TTW, LLC",8/28/09 0:00
54392,1000001416,No,Kelley Office Building,Blankenbaker Station Development,Louisville,KY,40223,US,LEED-NC v2009,44.0,Certified,8/25/11 0:00,Yes,Corporate: Privately Held,21215.0,76230.0,Office: Other Office,Kelley Construction,8/31/09 0:00
54413,1000001442,No,Baldinger Bakery,1256 Phalen Blvd,St Paul,MN,55106,US,LEED-NC v2009,55.0,Silver,10/21/11 0:00,Yes,Corporate: Privately Held,146597.0,400272.0,Warehouse and Distribution Center: Refrigerated,Baldinger Bakery,9/1/09 0:00
54423,1000001452,No,Miller Bonded Mechanical Fab Facility,4538 McLeod Road NE,Albuquerque,NM,87109,US,LEED-NC v2009,66.0,Gold,6/10/11 0:00,Yes,Corporate: Privately Held,16000.0,99696.0,Industrial,"KGE Properties, LLC",9/2/09 0:00
54426,1000001455,No,Arvin Community Dental Center,1305 Bear Mountain Blvd.,Arvin,CA,93203,US,LEED-NC v2009,51.0,Silver,9/7/11 0:00,Yes,Corporate: Privately Held,3865.0,109627.0,Health Care: Clinic/Other Outpatient,Clinica Sierra Vista,9/2/09 0:00
54435,1000001466,No,US Forest Service Tucson IOC,2646 E. Commerce Center Place,Tucson,AZ,85706,US,LEED-NC v2009,60.0,Gold,1/14/11 0:00,Yes,Corporate: Privately Held,12800.0,162779.0,Office: Government,HAM Tucson LLC,9/3/09 0:00
54460,1000001499,No,M E Group Office Building,8040 Davenport,Omaha,NE,68114,US,LEED-NC v2009,84.0,Platinum,7/13/10 0:00,Yes,Corporate: Privately Held,6268.0,9898.0,Commercial Office,M.E. Group,9/9/09 0:00
54463,1000001502,No,Timbers Clubhouse,Main Street,Fort Drum,NY,13602,US,LEED-NC v2009,40.0,Certified,11/8/11 0:00,Yes,Corporate: Privately Held,7142.0,145225.0,Public Assembly: Recreation,Actus Lend Lease,9/8/09 0:00
54477,1000001520,No,Reeves Wiedeman Company,3635 Main Street,Kansas City,MO,64111,US,LEED-NC v2009,61.0,Gold,12/1/11 0:00,Yes,Corporate: Privately Held,22260.0,32180.0,Office: Mixed-Use,Reeves Wiedeman Company,9/9/09 0:00
54505,1000001558,No,2 M Street,2 M Street NE,Washington,DC,20002,US,LEED-NC v2009,57.0,,,No,Corporate: Privately Held,314123.0,36500.0,Multi-Family Residential: Apartment,William C. Smith & Co.,9/11/09 0:00
54513,1000001571,No,Royal Farms 144,320 Carlisle Road,Dover,PA,17315,US,LEED-NC v2009,41.0,Certified,6/8/11 0:00,Yes,Corporate: Privately Held,5125.0,48806.0,Retail,Royal Farms,9/11/09 0:00
54528,1000001588,No,PetSmart,535 West Montauk Highway,West Babylon,NY,11704,US,LEED-NC v2009,49.0,Certified,12/1/11 0:00,Yes,Corporate: Privately Held,18287.0,110672.0,Retail: Other Retail,"535 Montauk Associates, LLC",9/14/09 0:00
54540,1000001601,No,Architectural Nexus Design Center,2505 East Parleys Way,Salt Lake City,UT,84109,US,LEED-NC v2009,80.0,Platinum,3/15/11 0:00,Yes,Corporate: Privately Held,30749.0,84815.0,Office: Administrative/Professional,Architectural Nexus,9/15/09 0:00
54567,1000001648,No,Wilder Quarry House,101 Upton Road,Orinda,CA,94563,US,LEED-NC v2009,41.0,Certified,3/21/12 0:00,Yes,Corporate: Privately Held,8618.0,256517.0,Public Assembly: Social/Meeting,Brooks Street,9/16/09 0:00
54600,1000001684,No,Restaurant Depot Alexandria,4600 Eisenhower Avenue,Alexandria,VA,22304,US,LEED-NC v2009,40.0,Certified,4/2/13 0:00,Yes,Corporate: Privately Held,72850.0,230991.0,Warehouse and Distribution Center: Refrigerated,Restaurant Depot,9/18/09 0:00
54657,1000001763,No,Walsh Headquarters,925 W. Jackson Blvd.,Chicago,IL,60607,US,LEED-NC v2009,86.0,Platinum,2/29/12 0:00,Yes,Corporate: Privately Held,93401.0,23392.0,Office: Administrative/Professional,Walsh Construction,9/24/09 0:00
54755,1000001908,No,MedPace,5401 Madison Avenue,Cincinnati,OH,45227,US,LEED-NC v2009,40.0,Certified,3/7/11 0:00,Yes,Corporate: Privately Held,130000.0,319086.0,Office: Administrative/Professional,Medpace,10/5/09 0:00
54771,1000001930,No,Virginia Natural Gas  Lakeview Corp Park,Studio Drive,Virginia Beach,VA,23454,US,LEED-NC v2009,46.0,Certified,7/7/11 0:00,Yes,Corporate: Privately Held,32596.0,119655.0,Office: Other Office,Armada Hoffler,10/5/09 0:00
54820,1000001988,No,Delta Energy LLC,5555 Perimeter Drive,Dublin,OH,43017,US,LEED-NC v2009,40.0,Certified,10/18/13 0:00,Yes,Corporate: Privately Held,19679.0,112211.0,Office: Administrative/Professional,Delta Energy LLC,10/9/09 0:00
54871,1000002052,No,Madison View Apartments,642 N.W. 5th Avenue,Miami,FL,33136,US,LEED-NC v2009,50.0,Silver,5/24/11 0:00,Yes,Corporate: Privately Held,141818.0,144133.0,Multi-Family Residential: Apartment,"Madison Housing, LTD.",10/14/09 0:00
54913,1000002104,No,Kraft Distribution Center,6710 Oakley Industrial Blvd,Union City,GA,30291,US,LEED-NC v2009,51.0,Silver,8/3/11 0:00,Yes,Corporate: Privately Held,989645.0,5184511.0,Warehouse and Distribution Center: Refrigerated,Commerce Construction,10/19/09 0:00
55001,1000002218,No,CVS 3825 3rd La Brea,303 S. La Brea Ave,Los Angeles,CA,90036,US,LEED-NC v2009,43.0,Certified,12/10/13 0:00,Yes,Corporate: Privately Held,10545.0,21634.0,Retail: Other Retail,CVS Caremark,10/26/09 0:00
55064,1000002303,No,Posty Cards Expansion,1600 Olive St.,Kansas City,MO,64127,US,LEED-NC v2009,81.0,Platinum,4/3/12 0:00,Yes,Corporate: Privately Held,45249.0,121213.0,Commercial Office,Posty Cards,11/2/09 0:00
55068,1000002307,No,Perkins and Will Atlanta Office,1315 Peachtree Street NE,Atlanta,GA,30309,US,LEED-NC v2009,95.0,Platinum,2/24/12 0:00,Yes,Corporate: Privately Held,62684.0,23593.0,Office: Mixed-Use,Perkins + Will,11/2/09 0:00
55200,1000002477,No,General Datatech,999 Metro Media Place,Dallas,TX,75247,US,LEED-NC v2009,67.0,Gold,5/16/13 0:00,Yes,Corporate: Privately Held,92792.0,233203.0,Office: Administrative/Professional,General Datatech,11/12/09 0:00
55221,1000002503,No,DHS - Salt Lake City,2975 South Decker Lake Drive,West Valley City,UT,84119,US,LEED-NC v2009,63.0,Gold,3/26/12 0:00,Yes,Corporate: Privately Held,95137.0,252634.0,Office: Government,"US Federal Properties Co., LLC",11/13/09 0:00
55262,1000002555,No,UMB - Prairie Village Branch Bank,6900 Mission Road,Prairie Village,KS,66208,US,LEED-NC v2009,58.0,Silver,7/12/12 0:00,Yes,Corporate: Privately Held,4547.0,23610.0,Retail: Bank Branch,"UMB Bank, N.a.",11/17/09 0:00
55268,1000002562,No,Metro Green Apartments B,Atlantic Street,Stamford,CT,6902,US,LEED-NC v2009,66.0,Gold,10/11/13 0:00,Yes,Corporate: Privately Held,61268.0,24314.0,Multi-Family Residential: Apartment,Jonathan Rose Companies LLC,11/18/09 0:00
55281,1000002578,No,Astellas Headquarters For The Americas,1 Astellas Way,Northbrook,IL,60062,US,LEED-NC v2009,63.0,Gold,1/14/13 0:00,Yes,Corporate: Privately Held,452488.0,386327.0,Office: Administrative/Professional,Astellas US LLC,11/18/09 0:00
55294,1000002593,No,231 Main Street Building,231 Main Street,New Paltz,NY,12561,US,LEED-NC v2009,71.0,,,No,Corporate: Privately Held,8100.0,20000.0,Commercial Office,231 Main Street In Balance LLC,11/19/09 0:00
55320,1000002624,No,Treasure Valley Community College,205 S. 6th Street,Caldwell,ID,83605,US,LEED-NC v2009,65.0,Gold,3/10/11 0:00,Yes,Corporate: Privately Held,38947.0,18465.0,Core Learning Space: College/University,Oppenheimer Development Corp,11/20/09 0:00
55337,1000002648,No,Hotel Vermont,41 Cherry Street,Burlington,VT,5401,US,LEED-NC v2009,41.0,Certified,5/4/15 0:00,Yes,Corporate: Privately Held,84295.0,22613.0,"Lodging: Hotel/Motel/Resort, Select Service",41 Cherry Street LLC,11/23/09 0:00
55366,1000002679,No,Sterling University UCF-2,3603 N Aristotle Ave,Orlando,FL,32826,US,LEED-NC v2009,55.0,Silver,2/27/12 0:00,Yes,Corporate: Privately Held,615391.0,224334.0,Multi-Family Residential: Apartment,Highway One Construction,11/25/09 0:00
55420,1000002743,No,UH Seidman Cancer Center,11100 Euclid Avenue,Cleveland,OH,44106,US,LEED-NC v2009,41.0,Certified,5/10/13 0:00,Yes,Corporate: Privately Held,370287.0,92906.0,Health Care,University Hospitals Case Medical Center,11/30/09 0:00
55425,1000002749,No,Keyes European Mercedes,5400 Van Nuys,Van Nuys,CA,91401-5650,US,LEED-NC v2009,56.0,Silver,9/12/13 0:00,Yes,Corporate: Privately Held,163493.0,222338.0,Retail: Vehicle Dealership,Howard A. Keyes Trust,12/1/09 0:00
55427,1000002752,No,Gardens At Driftwood,7350 N. Davie Rd. Extension,Hollywood,FL,33024,US,LEED-NC v2009,50.0,Silver,6/27/11 0:00,Yes,Corporate: Privately Held,107820.0,217364.0,Multi-Family Residential: Apartment,"Madison Housing, LTD.",12/1/09 0:00
55476,1000002815,No,Hampton Inn and Suites Chattanooga,400 Chestnut Street,Chattanooga,TN,37402,US,LEED-NC v2009,55.0,Silver,9/25/12 0:00,Yes,Corporate: Privately Held,132086.0,47916.0,Hotel/Resort,"Vision Hospitality Group, Inc",12/4/09 0:00
55550,1000002916,No,Courtside Apartments,1410 Orchard Street,Eugene,OR,97403,US,LEED-NC v2009,63.0,Gold,8/5/11 0:00,Yes,Corporate: Privately Held,61881.0,18939.0,Multi-Family Residential: Apartment,Project^,12/8/09 0:00
55564,1000002932,No,Baylor Medical Center at Uptown,2727 Lemmon Avenue,Dallas,TX,75204,US,LEED-NC v2009,50.0,Silver,6/20/11 0:00,Yes,Corporate: Privately Held,63500.0,53816.0,Health Care: Inpatient,"BremnerDuke Mary Shiels Development, L.P",12/8/09 0:00
55644,1000003042,No,Southern Bancorp Hernando,970 Byhalia Road,Hernando,MS,38632,US,LEED-NC v2009,41.0,Certified,8/13/12 0:00,Yes,Corporate: Privately Held,5835.0,74617.0,Office: Financial,Southern Bancorp Bank,12/11/09 0:00
55682,1000003092,No,Rice Fergus Miller Office Building,275 5th Street,Bremerton,WA,98337,US,LEED-NC v2009,92.0,Platinum,10/4/11 0:00,Yes,Corporate: Privately Held,32045.0,14195.0,Commercial Office,Rice Fergus Miller PLLC,12/14/09 0:00
55711,1000003124,No,GSA-SSA,Broomfield /Sweeney Road,Mount Pleasant,MI,48858,US,LEED-NC v2009,52.0,Silver,9/22/11 0:00,Yes,Corporate: Privately Held,20226.0,87555.0,Office: Government,Land Developer,12/15/09 0:00
55728,1000003146,No,Simmons Office Building,1 Court Street,Alton,IL,62024,US,LEED-NC v2009,43.0,Certified,3/2/12 0:00,Yes,Corporate: Privately Held,68164.5,79954.0,Office: Other Office,"Giant City Properties, LLC",12/16/09 0:00
55800,1000003234,No,Fields Northfield Volvo,770 Frontage Road,Northfield,IL,60093,US,LEED-NC v2009,55.0,Silver,9/20/12 0:00,Yes,Corporate: Privately Held,27056.1,111073.0,Retail: Vehicle Dealership,Fields Auto Group,12/18/09 0:00
55860,1000003303,No,Middletown VA CBOC,4337 Union Road,Middletown,OH,45005,US,LEED-NC v2009,50.0,Silver,11/8/11 0:00,Yes,Corporate: Privately Held,20284.0,163560.0,Health Care: Clinic/Other Outpatient,"Neyer East Pointe 200, LLC",12/21/09 0:00
55894,1000003346,No,HYPOWER FACILITIES - Office,1645 N.W. 33rd Street,Pompano Beach,FL,33069,US,LEED-NC v2009,71.0,Gold,10/2/11 0:00,Yes,Corporate: Privately Held,10305.0,78903.0,Warehouse and Distribution Center: Warehouse,"Hypower, Inc.",12/22/09 0:00
55928,1000003387,No,Royal Farms 118,Carlisle St. & Chesnut St.,Hanover,PA,17331,US,LEED-NC v2009,44.0,Certified,12/12/11 0:00,Yes,Corporate: Privately Held,5125.0,48806.0,Retail,Royal Farms,12/23/09 0:00
55930,1000003389,No,Royal Farms 159,1801 Washington Boulevard,Baltimoer,MD,21230,US,LEED-NC v2009,40.0,Certified,2/29/12 0:00,Yes,Corporate: Privately Held,5125.0,38627.0,Retail,Royal Farms,12/23/09 0:00
56014,1000003485,No,Engine House No 5,1331 19th,Denver,CO,80202,US,LEED-NC v2009,92.0,Platinum,8/3/11 0:00,Yes,Corporate: Privately Held,13024.0,16940.0,Office: Administrative/Professional,SLATERPAULL Architects,12/28/09 0:00
56048,1000003528,No,Woodward Design Build Headquarters,1000 S. Jefferson Davis Parkway,New Orleans,LA,70119,US,LEED-NC v2009,61.0,Gold,10/29/13 0:00,Yes,Corporate: Privately Held,45032.0,60754.0,Office: Administrative/Professional,Woodward Design+Build,12/30/09 0:00
56071,1000003553,No,Pathfinder Holdings 134 S Fitzhugh Renov,134 S Fitzhugh St,Rochester,NY,14608,US,LEED-NC v2009,60.0,Gold,9/27/10 0:00,Yes,Corporate: Privately Held,9432.0,19170.0,Commercial Office,Pathfinder Engineers LLP,12/30/09 0:00
56084,1000003568,No,New Distribution Facility,Intersection Of CR 118 And Turnersville Road,Buda,TX,78610,US,LEED-NC v2009,53.0,Silver,10/22/12 0:00,Yes,Corporate: Privately Held,292263.0,1749788.0,Commercial Office,U.S. Foodservice,12/31/09 0:00
56102,1000003591,No,Veolia Scalehouse,3163 Weatherington Lane,Valdosta,GA,31601,US,LEED-NC v2009,48.0,Certified,10/9/10 0:00,Yes,Corporate: Privately Held,1776.0,21780.0,Office: Administrative/Professional,"Veolia ES Evergreen Landfill, Inc.",1/3/10 0:00
56116,1000003605,No,Huntsville IRS,5123 Research Dr NW,Huntsville,AL,35805,US,LEED-NC v2009,60.0,Gold,6/10/11 0:00,Yes,Corporate: Privately Held,14500.0,108987.0,Office: Government,LBA Construction,1/4/10 0:00
56148,1000003639,No,Des Plaines Casino,3000 River Road,Des Plaines,IL,60016,US,LEED-NC v2009,62.0,Gold,3/1/12 0:00,Yes,Corporate: Privately Held,140000.0,850150.0,Public Assembly: Entertainment,Midwest Gaming & Entertainment,1/4/10 0:00
56208,1000003714,No,Midland States Bank,1201 Network Centre Drive,Effingham,IL,62401,US,LEED-NC v2009,52.0,Silver,6/1/12 0:00,Yes,Corporate: Privately Held,79500.0,204296.0,Office: Financial,Midland States Bank,1/5/10 0:00
56249,1000003764,No,Hunter Industries-1910,1910 Diamond Street,San Marcos,CA,92078,US,LEED-NC v2009,50.0,Silver,6/13/11 0:00,Yes,Corporate: Privately Held,18035.0,46044.0,Industrial Manufacturing,Hunter Industries Inc.,1/6/10 0:00
56251,1000003767,No,J-W Hangar Building,15508 Wright Brothers Dr,Addison,TX,75222,US,LEED-NC v2009,47.0,Certified,3/5/11 0:00,Yes,Corporate: Privately Held,15092.0,23836.0,Office: Administrative/Professional,J-W Operating Company,1/6/10 0:00
56392,1000003920,No,Samuel Staten Sr Office Building,665 N Broad Street,Philadelphia,PA,19130,US,LEED-NC v2009,50.0,Silver,5/6/13 0:00,Yes,Corporate: Privately Held,25420.0,5105.0,Office: Administrative/Professional,Laborers' District Council,1/8/10 0:00
56433,1000003963,No,Unity Health Care - Anacostia,1500 Galen Street SE,Washington,DC,20020,US,LEED-NC v2009,57.0,Silver,10/28/13 0:00,Yes,Corporate: Privately Held,27934.0,40000.0,Health Care: Clinic/Other Outpatient,DC Primary Care Association,1/8/10 0:00
56482,1000004012,No,Brewery Vivant,925 Cherry St,Grand Rapids,MI,49506,US,LEED-NC v2009,52.0,Silver,1/3/12 0:00,Yes,Corporate: Privately Held,9095.0,48417.0,Retail: Restaurant/Cafeteria,Brewery Vivant,1/8/10 0:00
56531,1000004065,No,Denver Union Station Transit Center,1700 Wewatta Street,Denver,CO,80202,US,LEED-NC v2009,62.0,Gold,8/26/14 0:00,Yes,Corporate: Privately Held,186538.0,982246.0,Service: Other Service,Trammell Crow Company,1/8/10 0:00
56619,1000004167,No,Royal Farms 153,111 Street,Hollander Ridge,MD,21237,US,LEED-NC v2009,41.0,Certified,3/5/12 0:00,Yes,Corporate: Privately Held,5125.0,75795.0,Retail: Convenience Store,Royal Farms,1/10/10 0:00
56624,1000004173,No,Royal Farms 149,1558 Annapolis Rd,Odenton,MD,21113,US,LEED-NC v2009,40.0,Certified,2/28/12 0:00,Yes,Corporate: Privately Held,5125.0,57797.0,Retail: Convenience Store,Royal Farms,1/10/10 0:00
56635,1000004184,No,Royal Farms 013,11460 S. Dupont Hwy,Felton,DE,19943,US,LEED-NC v2009,40.0,Certified,8/31/11 0:00,Yes,Corporate: Privately Held,5125.0,124146.0,Retail: Convenience Store,Royal Farms,1/10/10 0:00
56693,1000004259,No,Regent Bank,550 E. McBee Avenue,Greenville,SC,29601,US,LEED-NC v2009,43.0,Certified,7/5/11 0:00,Yes,Corporate: Privately Held,20601.0,34848.0,Office: Financial,Regent Bank Of South Carolina,1/12/10 0:00
56736,1000004312,No,Arbour Square Apartments,148th And Orchard Parkway,Westminster,CO,80023,US,LEED-NC v2009,46.0,Certified,4/29/13 0:00,Yes,Corporate: Privately Held,361605.0,181514.0,Multi-Family Residential: Apartment,McWhinney,1/14/10 0:00
56745,1000004322,No,Halliburton North Belt Campus Child Care,3000 N Sam Houston Pkwy East,Houston,TX,77032,US,LEED-NC v2009,51.0,Silver,4/14/15 0:00,Yes,Corporate: Privately Held,10223.0,143734.0,Core Learning Space: Preschool/Daycare,Halliburton,1/14/10 0:00
56746,1000004323,No,Halliburton North Belt Campus Office,3000 N Sam Houston Pkwy East,Houston,TX,77032,US,LEED-NC v2009,50.0,Silver,12/3/14 0:00,Yes,Corporate: Privately Held,296884.0,597089.0,Office: Administrative/Professional,Halliburton,1/14/10 0:00
56759,1000004340,No,Residence Inn,3565 Chain Bridge Road,Fairfax,VA,22030,US,LEED-NC v2009,42.0,Certified,6/12/12 0:00,Yes,Corporate: Privately Held,104999.0,111212.0,"Lodging: Hotel/Motel/Resort, Select Service",WPM Construction,1/18/10 0:00
56845,1000004447,No,Santan Volkswagen,1489 E Motorplex Loop,Gilbert,AZ,85297,US,LEED-NC v2009,46.0,Certified,12/12/11 0:00,Yes,Corporate: Privately Held,32141.0,196020.0,Retail: Vehicle Dealership,Santan Volkswagen,1/27/10 0:00
56861,1000004474,No,TownePlace Suites by Marriott,55 Gate Road - Quonset Business Park,North Kingstown,RI,2852,US,LEED-NC v2009,53.0,Silver,8/16/12 0:00,Yes,Corporate: Privately Held,55453.0,201684.0,"Lodging: Hotel/Motel/Resort, Limited Service",Waterford Development Corp.,1/28/10 0:00
56900,1000004521,No,Avalon Business Center,28655 Industry Drive,Valencia,CA,91355,US,LEED-NC v2009,56.0,Silver,10/2/12 0:00,Yes,Corporate: Privately Held,24997.0,140054.0,Industrial Manufacturing,Avalon Investment,2/2/10 0:00
57070,1000004721,No,Herb Gordon Mercedes-Benz,3301 Briggs Chaney Road,Silver Spring,MD,20904,US,LEED-NC v2009,44.0,Certified,12/21/11 0:00,Yes,Corporate: Privately Held,55895.0,217051.0,Retail: Vehicle Dealership,Herb Gordon Auto Group,2/11/10 0:00
57131,1000004796,No,Wildflower Terrace,Intersection of Berman and Tom Miller,Austin,TX,78723,US,LEED-NC v2009,51.0,Silver,11/30/12 0:00,Yes,Corporate: Privately Held,236111.0,131122.0,Multi-Family Residential: Apartment,"DMA Development Company, LLC",2/17/10 0:00
57148,1000004815,No,Tamarack Lodge,Heavenly Mountain Resort,Stateline,NV,89449,US,LEED-NC v2009,42.0,Certified,8/4/11 0:00,Yes,Corporate: Privately Held,14980.0,250202.0,Retail: Restaurant/Cafeteria,Heavenly Mountain Resort,2/17/10 0:00
57258,1000004970,No,Sun N Fun Indoor Pool Building,7125 Fruitville Road,Sarasota,FL,34240,US,LEED-NC v2009,65.0,Gold,8/14/12 0:00,Yes,Corporate: Privately Held,18718.0,42800.0,Service: Vehicle Storage/Maintenance,Royalty Resorts,2/24/10 0:00
57266,1000004979,No,Kutol Products Company,100 Partnership Way,Sharonville,OH,45241,US,LEED-NC v2009,50.0,Silver,7/28/11 0:00,Yes,Corporate: Privately Held,152000.0,762300.0,Warehouse and Distribution Center: Warehouse,Kutol Products Company,2/25/10 0:00
57369,1000005105,No,Park Douglas Management Building,2719 W Roosevelt Rd.,Chicago,IL,60608,US,LEED-NC v2009,61.0,Gold,1/18/13 0:00,Yes,Corporate: Privately Held,3772.0,5760.0,Office: Administrative/Professional,"Ogden North, LLC",3/4/10 0:00
57379,1000005116,No,Stafford Hills Racquet Club,5916 SW Nyberg Lane,Tualatin,OR,97062,US,LEED-NC v2009,52.0,Silver,3/15/13 0:00,Yes,Corporate: Privately Held,90260.0,683456.0,Public Assembly: Recreation,Zupancic Group,3/4/10 0:00
57419,1000005167,No,Notre Dame Apartments,5725 NW 2nd Avenue,Miami,FL,33127,US,LEED-NC v2009,41.0,Certified,3/11/13 0:00,Yes,Corporate: Privately Held,123779.0,27304.0,Multi-Family Residential: Apartment,Biscayne Housing LLC,3/8/10 0:00
57448,1000005201,No,East Bakersfield Dental Center,East California Avenue & South Robinson Street,Bakersfield,CA,93307,US,LEED-NC v2009,46.0,Certified,2/21/12 0:00,Yes,Corporate: Privately Held,4013.0,28541.0,Health Care: Clinic/Other Outpatient,Clinica Sierra Vista,3/9/10 0:00
57499,1000005264,No,Utah Paper Box Office and Printing Bldg,920 South 700 West,Salt Lake City,UT,84104,US,LEED-NC v2009,61.0,Gold,7/29/13 0:00,Yes,Corporate: Privately Held,80814.0,130694.0,Industrial Manufacturing,UPB,3/15/10 0:00
57818,1000005665,No,Cargas Office Building,1310 Marshall Avenue,Lancaster,PA,17602,US,LEED-NC v2009,58.0,Silver,4/30/13 0:00,Yes,Corporate: Privately Held,11500.0,57445.0,Office: Administrative/Professional,Wohlsen Construction Company,4/7/10 0:00
57820,1000005668,No,Black and Veatch World Headquarters,11401 Lamar Ave,Overland Park,KS,66211,US,LEED-NC v2009,40.0,Certified,4/2/15 0:00,Yes,Corporate: Privately Held,610600.0,550344.0,Office: Administrative/Professional,Black & Veatch Corporation,4/7/10 0:00
57840,1000005692,No,Paramount HC REIT Peters Township,240 East McMurray Road,McMurray,PA,15317,US,LEED-NC v2009,55.0,Silver,4/9/12 0:00,Yes,Corporate: Privately Held,80900.0,653400.0,Health Care: Nursing Home/ Assisted Living,Paramount Senior Living,4/8/10 0:00
57852,1000005705,No,Tri Vantage LLC/CDC,1021 Corporate Park Drive,Mebane,NC,27302,US,LEED-NC v2009,51.0,Silver,8/3/11 0:00,Yes,Corporate: Privately Held,102152.0,531859.0,"Warehouse and Distribution Center: Nonrefrigerated, Distribu",Tri Vantage,4/9/10 0:00
58048,1000005942,No,Fairfield Hy-Vee,1300 West Burlington Avenue,Fairfield,IA,52556,US,LEED-NC v2009,40.0,Certified,9/10/12 0:00,Yes,Corporate: Privately Held,64071.0,323387.0,Retail: Grocery Store/Food Market,"Hy-Vee, Inc.",4/21/10 0:00
58056,1000005952,No,Department of Motor Vehicles - El Monte,4000 Arden Drive,El Monte,CA,90630,US,LEED-NC v2009,56.0,Silver,3/8/12 0:00,Yes,Corporate: Privately Held,10595.0,89283.0,Service: Other Service,"DMV Arden XC, LP",4/21/10 0:00
58160,1000006076,No,Emagine Entertainment,217-223 E. 11 Mile Rd.,Royal Oak,MI,48067,US,LEED-NC v2009,40.0,Certified,12/21/11 0:00,Yes,Corporate: Privately Held,71727.0,67965.0,Public Assembly: Entertainment,Emagine Entertainment,4/27/10 0:00
58207,1000006139,No,Vista Mar Apartments,3606 NW 5th Avenue,Miami,FL,33127,US,LEED-NC v2009,51.0,Silver,2/7/12 0:00,Yes,Corporate: Privately Held,214102.39,40897.0,Multi-Family Residential: Apartment,Pinnacle Housing Group,4/29/10 0:00
58236,1000006172,No,Royal Farms 160,2812 Pulaski Hwy,Glasgow,DE,19702,US,LEED-NC v2009,41.0,Certified,8/6/12 0:00,Yes,Corporate: Privately Held,5125.0,247856.0,Retail: Convenience Store,Royal Farms,5/3/10 0:00
58238,1000006174,No,Royal Farms 121,Route 13 & Route 14,Harrington,DE,19952,US,LEED-NC v2009,44.0,Certified,5/21/12 0:00,Yes,Corporate: Privately Held,5125.0,73180.0,Retail: Convenience Store,Royal Farms,5/3/10 0:00
58254,1000006192,No,York County Natural Gas Service Facility,965 West Main Street,Rock Hill,SC,29731,US,LEED-NC v2009,50.0,Silver,1/16/14 0:00,Yes,Corporate: Privately Held,19878.0,111339.0,Office: Mixed-Use,York County Natural Gas Authority,5/3/10 0:00
58385,1000006352,No,ICE,8860 Salrose Lane,Fort Myers,FL,33912,US,LEED-NC v2009,52.0,Silver,3/1/12 0:00,Yes,Corporate: Privately Held,40719.0,109567.0,Office: Other Office,Procacci Development Corporation,5/11/10 0:00
58483,1000006494,No,SpringHill Suites at Columbus Ohio OSU,1421 Olentangy River Road,Columbus,OH,43212,US,LEED-NC v2009,43.0,Certified,4/1/13 0:00,Yes,Corporate: Privately Held,79166.0,87642.0,"Lodging: Hotel/Motel/Resort, Full Service","Concord Hospitality/Olentangy Hotel, LLC",5/18/10 0:00
58485,1000006496,No,Design Group Headquarters,120 Vassar SE,Albuquerque,NM,87106,US,LEED-NC v2009,87.0,Platinum,10/21/13 0:00,Yes,Corporate: Privately Held,13422.0,28419.0,Office: Administrative/Professional,The Hartman & Majewski Design Group,5/18/10 0:00
58534,1000006561,No,The Greenhouse,219 14th St. NW,Charlottesville,VA,22903,US,LEED-NC v2009,44.0,Certified,6/4/13 0:00,Yes,Corporate: Privately Held,40440.0,16277.0,Multi-Family Residential: Apartment,CBS Rentals,5/21/10 0:00
58535,1000006562,No,Su Clinica Familia,105 East Alton Gloor Road,Brownsville,TX,78526,US,LEED-NC v2009,51.0,Silver,4/25/13 0:00,Yes,Corporate: Privately Held,62435.0,364690.0,Office: Medical (Non-Diagnostic),Su Clinica Familiar,5/21/10 0:00
58551,1000006588,No,The LOOP,6533 & 6539 Trigo Road,Isla Vista,CA,93117,US,LEED-NC v2009,50.0,Silver,3/19/14 0:00,Yes,Corporate: Privately Held,49516.0,16520.0,Multi-Family Residential: Apartment,"Mesa Lane Partners, LLC",5/24/10 0:00
58581,1000006622,No,Highland Green Building,1401Bardstown Rd.,Louisville,KY,40204,US,LEED-NC v2009,68.0,Gold,6/17/13 0:00,Yes,Corporate: Privately Held,5134.0,9496.0,Office: Mixed-Use,Doric Real Estate,5/26/10 0:00
58619,1000006663,No,Red Sea Data Center,5101 Lafayette Street,Santa Clara,CA,95054,US,LEED-NC v2009,54.0,Silver,12/3/12 0:00,Yes,Corporate: Privately Held,27021.0,60679.0,Datacenter,Red Sea Group,5/27/10 0:00
58634,1000006681,No,BGSU - New West Dining Hub,Ridge Street And Thurstin Avenue,Bowling Green,OH,43403,US,LEED-NC v2009,61.0,Gold,6/23/14 0:00,Yes,Corporate: Privately Held,32079.0,118749.0,Service: Other Service,Compass Group Projects Division,5/28/10 0:00
58685,1000006739,No,Saginaw VA - MHAF,4241 Barnard St.,Saginaw,MI,48604,US,LEED-NC v2009,55.0,Silver,11/3/11 0:00,Yes,Corporate: Privately Held,18703.0,168822.0,Office: Medical (Non-Diagnostic),"BGI South, LLC",6/3/10 0:00
58689,1000006745,No,Collegetown Clubhouse,335 Abbot Street,Atlanta,GA,30310,US,LEED-NC v2009,64.0,Gold,11/22/11 0:00,Yes,Corporate: Privately Held,4507.0,31282.0,Service: Other Service,The Integral Group,6/2/10 0:00
58693,1000006749,No,Dealer com South Addition,444 Pine Street,Burlington,VT,5401,US,LEED-NC v2009,61.0,Gold,6/20/13 0:00,Yes,Corporate: Privately Held,74712.0,243656.0,Office: Administrative/Professional,Dealer.com,6/3/10 0:00
58709,1000006776,No,Auburn Pointe,322 Decatur Street,Atlanta,GA,30312,US,LEED-NC v2009,52.0,Silver,9/21/11 0:00,Yes,Corporate: Privately Held,4934.0,28012.0,Service: Other Service,The Integral Group,6/3/10 0:00
58711,1000006778,No,Courtyard Terraces,4321 52nd Street,San Diego,CA,92115,US,LEED-NC v2009,51.0,Silver,5/5/11 0:00,Yes,Corporate: Privately Held,63761.0,36155.0,Multi-Family Residential: Apartment,"Dawson Avenue Senior Apartments, L.P.",6/3/10 0:00
58743,1000006816,No,Mike Ward Infiniti,C-470 & Lucent Blvd,Unincorporated,CO,80129,US,LEED-NC v2009,42.0,Certified,9/24/12 0:00,Yes,Corporate: Privately Held,41800.0,228254.0,Retail: Vehicle Dealership,Mike Ward Infiniti,6/7/10 0:00
58747,1000006820,No,Indar-Ingeteam,3550 W. Canal Street,Milwaukee,WI,53208,US,LEED-NC v2009,62.0,Gold,4/23/12 0:00,Yes,Corporate: Privately Held,137728.0,354250.0,Industrial Manufacturing,Ingeteam Inc,6/7/10 0:00
58750,1000006823,No,The Citron,815 Pershing Drive,Silver Spring,MD,20910,US,LEED-NC v2009,52.0,Silver,11/26/13 0:00,Yes,Corporate: Privately Held,218660.0,86595.0,Multi-Family Residential: Apartment,"Foulger-Pratt Contracting, LLC",6/7/10 0:00
58759,1000006838,No,Building Expansion - FHP,2188 Diehl Rd.,Aurora,IL,60505,US,LEED-NC v2009,46.0,Certified,1/17/12 0:00,Yes,Corporate: Privately Held,101000.0,289308.0,Industrial Manufacturing,Fruedenberg Household Products,6/7/10 0:00
58792,1000006880,No,Culvers of Baraboo,420 Linn Street,Baraboo,WI,53913,US,LEED-NC v2009,50.0,Silver,1/16/13 0:00,Yes,Corporate: Privately Held,4207.0,65416.0,Retail: Restaurant/Cafeteria,"Culver Franchising System, Inc.",6/9/10 0:00
58853,1000006979,No,Ritter Communications,2400 Ritter Drive,Jonesboro,AR,72401,US,LEED-NC v2009,56.0,Silver,4/19/13 0:00,Yes,Corporate: Privately Held,32645.0,193738.0,Office: Administrative/Professional,Ritter Communications,6/15/10 0:00
58858,1000006985,No,OSI Corporate Headquarters,4101 Arrowhead Drive,Medina,MN,55340,US,LEED-NC v2009,65.0,Gold,11/21/12 0:00,Yes,Corporate: Privately Held,97000.0,833025.0,Office: Administrative/Professional,"Open Systems International, Inc.",6/15/10 0:00
58874,1000007006,No,HYPOWER FACILITIES- Building 2,1645 NW 33rd Street,Pompano Beach,FL,33069,US,LEED-NC v2009,80.0,Platinum,6/5/12 0:00,Yes,Corporate: Privately Held,3832.0,78903.0,Warehouse and Distribution Center: Warehouse,"Hypower, Inc.",6/16/10 0:00
58876,1000007008,No,Dow - BPSC Facility,2511 East Patrick Road,Midland,MI,48640,US,LEED-NC v2009,51.0,Silver,1/8/13 0:00,Yes,Corporate: Privately Held,205717.0,1854317.0,Office: Other Office,SSP Associates,6/16/10 0:00
58912,1000007058,No,Boeing HUB Expansion,5300 International Blvd.,North Charleston,SC,29418,US,LEED-NC v2009,66.0,Gold,6/25/12 0:00,Yes,Corporate: Privately Held,29278.0,164203.0,Office: Other Office,The Boeing Company,6/18/10 0:00
58927,1000007077,No,Werner Institute,9080 West Cheyenne Avenue,Las Vegas,NV,89129,US,LEED-NC v2009,54.0,Silver,1/5/12 0:00,Yes,Corporate: Privately Held,5000.0,20872.0,Office: Medical (Non-Diagnostic),Werner Institute,6/19/10 0:00
58966,1000007132,No,Kids R Kids,5815 Kids Crossing Drive,Lithia,FL,33596,US,LEED-NC v2009,44.0,Certified,2/20/13 0:00,Yes,Corporate: Privately Held,12500.0,71020.0,Core Learning Space: Preschool/Daycare,Kids R Kids,6/22/10 0:00
58995,1000007176,No,San Francisco Toyota Showroom,3800 Geary Boulevard,San Francisco,CA,94118,US,LEED-NC v2009,88.0,Platinum,10/24/12 0:00,Yes,Corporate: Privately Held,10788.0,20258.0,Retail: Vehicle Dealership,San Francisco Toyota,6/24/10 0:00
59085,1000007285,No,Porsche Center,9455 IH-10 West,San Antonio,TX,78230,US,LEED-NC v2009,67.0,Gold,7/2/12 0:00,Yes,Corporate: Privately Held,25175.0,130670.0,Retail: Vehicle Dealership,The Performance Companies,6/29/10 0:00
59093,1000007294,No,Sleepy Hollow - Squash Building,777 Albany Post Road,Briarcliff Manor,NY,10510,US,LEED-NC v2009,50.0,Silver,10/9/12 0:00,Yes,Corporate: Privately Held,12220.0,71625.0,Public Assembly: Recreation,Sleepy Hollow Country Club,6/29/10 0:00
59100,1000007301,No,Boeing Site Services Building,Charleston Airport,North Charleston,SC,29418,US,LEED-NC v2009,52.0,Silver,6/26/12 0:00,Yes,Corporate: Privately Held,33149.0,123372.0,Service: Repair Shop,Boeing,6/30/10 0:00
59123,1000007327,No,Oldenburg Group Corporate Office,2141 Woodward Avenue,Kingsford,MI,49802,US,LEED-NC v2009,45.0,Certified,11/5/12 0:00,Yes,Corporate: Privately Held,22895.0,191475.0,Office: Administrative/Professional,The Oldenburg Group,7/1/10 0:00
59130,1000007334,No,SIERR Building (Great Northern Building),850 E Spokane Falls Blvd,Spokane,WA,99202,US,LEED-NC v2009,70.0,Gold,8/2/12 0:00,Yes,Corporate: Privately Held,70527.0,120428.0,Office: Administrative/Professional,McKinstry Company,7/1/10 0:00
59253,1000007488,No,Mercedes Benz of Fairfield,2950 Auto Mall Parkway,Fairfield,CA,94533,US,LEED-NC v2009,43.0,Certified,9/6/12 0:00,Yes,Corporate: Privately Held,40806.0,192503.0,Retail: Vehicle Dealership,"Price-Simms, Inc.",7/12/10 0:00
59280,1000007519,No,Childrens Mercy East Campus,20300 E. Valley View Pkwy.,Independence,MO,64057,US,LEED-NC v2009,46.0,Certified,2/25/13 0:00,Yes,Corporate: Privately Held,55486.0,486710.0,Health Care: Clinic/Other Outpatient,Childrens Mercy Hospital,7/13/10 0:00
59370,1000007628,No,ICE Building,Mesa del Sol,Albuquerque,NM,87106,US,LEED-NC v2009,52.0,Silver,9/25/12 0:00,Yes,Corporate: Privately Held,76964.0,322467.0,Office: Government,Artesia Development,7/16/10 0:00
59407,1000007671,No,4000 Masthead,4000 Masthead,Albuquerque,NM,87113,US,LEED-NC v2009,63.0,Gold,11/7/11 0:00,Yes,Corporate: Privately Held,101660.0,177990.0,Office: Government,Asset Management Solutions,7/19/10 0:00
59466,1000007745,No,DLZ Building Renovation,157 E Maryland Street,Indianapolis,IN,46204,US,LEED-NC v2009,52.0,Silver,10/2/13 0:00,Yes,Corporate: Privately Held,31000.0,6200.0,Office: Administrative/Professional,DLZ,7/22/10 0:00
59493,1000007776,No,Dahls Fuel Ingersoll,3425 Ingersoll Avenue,Des Moines,IA,50312,US,LEED-NC v2009,50.0,Silver,4/11/12 0:00,Yes,Corporate: Privately Held,4596.0,18157.0,Retail: Convenience Store,Dahl's Foods,7/23/10 0:00
59882,1000008204,No,FAITH Hanger,1434 Flightline St,Mojave,CA,93501,US,LEED-NC v2009,40.0,Certified,2/12/13 0:00,Yes,Corporate: Privately Held,69621.0,239573.0,Industrial Manufacturing,The Spaceship Company,7/29/10 0:00
59922,1000008244,No,Johnson Dermatology,Riley Park Drive And Highway 71,Fort Smith,AR,72916,US,LEED-NC v2009,52.0,Silver,1/9/12 0:00,Yes,Corporate: Privately Held,11988.0,129930.0,Health Care: Clinic/Other Outpatient,Johnson Dermatology,7/30/10 0:00
59947,1000008274,No,Spectrum Community Health Center,5201-15 52nd Street & Haverford Avenue,Philadelphia,PA,19139,US,LEED-NC v2009,54.0,Silver,6/23/14 0:00,Yes,Corporate: Privately Held,35825.0,26500.0,Health Care,"Spectrum Health Services, Inc.",8/2/10 0:00
60025,1000008369,No,US Attorneys Office,717 West Broadway,Louisville,KY,40203,US,LEED-NC v2009,54.0,Silver,12/10/13 0:00,Yes,Corporate: Privately Held,85996.0,58370.0,Office: Government,JDL Castle Corporation,8/4/10 0:00
60063,1000008418,No,Texas Disposal Systems MRF,TDS MRF,Creedmoor,TX,78610,US,LEED-NC v2009,50.0,Silver,5/23/13 0:00,Yes,Corporate: Privately Held,107630.0,480692.0,Industrial Manufacturing,Texas Disposal Systems,8/5/10 0:00
60065,1000008421,No,Brendle Group Office,212 West Mulberry Street,Fort Collins,CO,80521-2814,US,LEED-NC v2009,76.0,Gold,12/13/11 0:00,Yes,Corporate: Privately Held,5272.0,12826.0,Office: Administrative/Professional,Brendle Group,8/5/10 0:00
60111,1000008478,No,Gaylord Texan Resort Pool,1501 Gaylord Trail,Grapevine,TX,76051,US,LEED-NC v2009,52.0,Silver,1/8/13 0:00,Yes,Corporate: Privately Held,6902.0,321405.0,Lodging: Other lodging,Entertainment/Opryland Hotel TX,8/10/10 0:00
60116,1000008487,No,3029 Burbank,3029 Burbank Blvd,Burbank,CA,91505-2312,US,LEED-NC v2009,56.0,Silver,2/15/12 0:00,Yes,Corporate: Privately Held,6500.0,10670.0,Office: Other Office,Catalyst Post Services,8/10/10 0:00
60291,1000008671,No,Palm Desert DMV,36-400 Technology Drive,Palm Desert,CA,92211,US,LEED-NC v2009,52.0,Silver,11/12/14 0:00,Yes,Corporate: Privately Held,11280.0,96787.0,Service: Other Service,Magnon Companies,8/12/10 0:00
60313,1000008695,No,Heart of Ohio Family Health Center,882 Hamilton Rd,Columbus,OH,43215,US,LEED-NC v2009,50.0,Silver,7/30/12 0:00,Yes,Corporate: Privately Held,17547.0,331300.0,Health Care: Clinic/Other Outpatient,Heart Of Ohio Family Health Centers,8/16/10 0:00
60361,1000008755,No,CityFlats Grand Rapids,83 Monroe Center NW,Grand Rapids,MI,49503,US,LEED-NC v2009,62.0,Gold,7/31/13 0:00,Yes,Corporate: Privately Held,21546.0,3870.0,"Lodging: Hotel/Motel/Resort, Full Service",CityFlats Grand Rapids,8/18/10 0:00
60374,1000008772,No,Torrance Toyota,2909 Pacific Coast Highway,Torrance,CA,90505,US,LEED-NC v2009,61.0,Gold,7/1/13 0:00,Yes,Corporate: Privately Held,17938.0,147929.0,Retail: Vehicle Dealership,DCH Auto Grouop,8/18/10 0:00
60408,1000008810,No,Navy Green R3,45 Clermont Avenue,Brooklyn,NY,11205,US,LEED-NC v2009,45.0,Certified,6/13/12 0:00,Yes,Corporate: Privately Held,96371.0,30482.0,Multi-Family Residential: Apartment,Navy Green R3 LLC,8/20/10 0:00
60526,1000008962,No,Boral Composites,700 S Long St,East Spencer,NC,28039,US,LEED-NC v2009,51.0,Silver,10/2/12 0:00,Yes,Corporate: Privately Held,33822.0,215449.0,Industrial Manufacturing,Boral Composites Inc.,8/27/10 0:00
60553,1000008994,No,Old Dominion Freight Line Canton Cross D,3970 Commerce Street,Canton,OH,44706,US,LEED-NC v2009,41.0,Certified,8/29/12 0:00,Yes,Corporate: Privately Held,32358.0,667439.0,Office: Other Office,Old Dominion,8/29/10 0:00
60618,1000009076,No,CSO Architects Corporate Headquarters,8831 Keystone Crossing,Indianapolis,IN,46240,US,LEED-NC v2009,60.0,Gold,12/23/11 0:00,Yes,Corporate: Privately Held,31722.0,53790.0,Office: Administrative/Professional,PK Partners,9/1/10 0:00
60681,1000009155,No,Waukesha Electric Systems,400 S. Prairie Avenue,Waukesha,WI,53186,US,LEED-NC v2009,44.0,Certified,8/8/12 0:00,Yes,Corporate: Privately Held,154310.0,682602.0,Industrial Manufacturing,Waukesha Electric Systems,9/7/10 0:00
60711,1000009191,No,CA DMV Fresno CDL Facility,791 E. North Avenue,Fresno,CA,93725,US,LEED-NC v2009,55.0,Silver,4/20/15 0:00,Yes,Corporate: Privately Held,6187.0,256681.0,Office: Government,Development,9/8/10 0:00
60713,1000009194,No,2400 Nueces Street,2400 Nueces Street,Austin,TX,78705,US,LEED-NC v2009,63.0,Gold,6/9/14 0:00,Yes,Corporate: Privately Held,383769.0,62160.0,Multi-Family Residential: Apartment,"Allen & O#Hara Development Company, LLC",9/8/10 0:00
60824,1000009334,No,Covidien Building 7,5920 Longbow Drive,Boulder,CO,80218,US,LEED-NC v2009,65.0,Gold,1/16/13 0:00,Yes,Corporate: Privately Held,61100.0,89594.0,Laboratory,Covidien,9/15/10 0:00
60865,1000009378,No,Homewood Suites,4109 Walnut Street,Philadelphia,PA,19104,US,LEED-NC v2009,52.0,Silver,9/17/12 0:00,Yes,Corporate: Privately Held,110157.0,18264.0,"Lodging: Hotel/Motel/Resort, Limited Service","Campus Realty-V, LP",9/16/10 0:00
60883,1000009396,No,Moerlein Lager House,115 Joe Nuxhall Way,Cincinnati,OH,45202,US,LEED-NC v2009,47.0,Certified,12/27/12 0:00,Yes,Corporate: Privately Held,26376.0,14137.0,Public Assembly: Entertainment,"MLH Cincinnati USA, LLC",9/16/10 0:00
60905,1000009420,No,Old Colony Community Building,125 Mercer Street,Boston,MA,2127,US,LEED-NC v2009,64.0,Gold,5/25/12 0:00,Yes,Corporate: Privately Held,10513.0,28771.0,Public Assembly: Other Assembly,Beacon Communities Services,9/17/10 0:00
60936,1000009461,No,Kum & Go Store #572,4860 NW Urbandale Drive,Urbandale,IA,50322,US,LEED-NC v2009,43.0,Certified,8/16/12 0:00,Yes,Corporate: Privately Held,4958.0,64933.0,Retail: Convenience Store,Kum & Go Corporate,9/21/10 0:00
60939,1000009465,No,Kum & Go Store #383,1010 North Thompson,Springdale,AR,72764,US,LEED-NC v2009,45.0,Certified,6/7/12 0:00,Yes,Corporate: Privately Held,4958.0,103763.0,Retail: Convenience Store,Kum & Go Corporate,9/21/10 0:00
60941,1000009467,No,Kum & Go Store #408,2811 E. Central Avenue,Bentonville,AR,72712,US,LEED-NC v2009,46.0,Certified,7/8/13 0:00,Yes,Corporate: Privately Held,4958.0,90029.0,Retail: Convenience Store,Kum & Go,9/21/10 0:00
60944,1000009471,No,Kum & Go Store #8,1293 8th Street,West Des Moines,IA,50265,US,LEED-NC v2009,50.0,Silver,7/8/13 0:00,Yes,Corporate: Privately Held,4958.0,57876.0,Retail: Convenience Store,"Kum & Go, L.C.",9/21/10 0:00
60947,1000009474,No,Enza Zaden USA Research,525 Lucy Brown Lane,San Juan Bautista,CA,95045,US,LEED-NC v2009,46.0,Certified,7/23/13 0:00,Yes,Corporate: Privately Held,9089.78,65732.0,Office: Other Office,Bright Green Strategies,9/21/10 0:00
60996,1000009534,No,Bonita Cove,5715 NW 2nd Avenue,Miami,FL,33127,US,LEED-NC v2009,44.0,Certified,2/26/13 0:00,Yes,Corporate: Privately Held,95033.0,22902.0,Multi-Family Residential: Apartment,Biscayne Housing Group,9/23/10 0:00
61029,1000009570,No,Facebook PRN 1CD Data Center,735 Connect Way Suite 1c1d,Prineville,OR,97754,US,LEED-NC v2009,73.0,Gold,2/5/13 0:00,Yes,Corporate: Privately Held,163130.0,450000.0,Datacenter,Facebook,9/24/10 0:00
61085,1000009640,No,Tustin Toyota,36 Auto Center Drive,Tustin,CA,92782,US,LEED-NC v2009,50.0,Silver,4/11/13 0:00,Yes,Corporate: Privately Held,149014.0,187240.0,Retail: Vehicle Dealership,Tustin Toyota,9/29/10 0:00
61089,1000009644,No,FedEx Express City Van Station-Yuma AZ,289 W 40th Street,Yuma,AZ,85365,US,LEED-NC v2009,50.0,Silver,9/12/12 0:00,Yes,Corporate: Privately Held,4962.0,158123.0,Office: Administrative/Professional,Setzer Properties Yuma LLC,9/29/10 0:00
61092,1000009649,No,Price Chopper  - New Binghamton,10 Glenwood Avenue,Binghamton,NY,13905-2568,US,LEED-NC v2009,46.0,Certified,7/2/14 0:00,Yes,Corporate: Privately Held,52352.0,454893.0,Retail: Grocery Store/Food Market,Golub Corporation,9/30/10 0:00
61099,1000009656,No,GLTC Transfer Center,Kemper Street,Lynchburg,VA,24505,US,LEED-NC v2009,80.0,,,No,Corporate: Privately Held,6405.0,134351.0,Public Assembly: Other Assembly,GLTC,9/30/10 0:00
61124,1000009688,No,Division Park Avenue LDHALP,209 And 217 S. Division Ave,Grand Rapids,MI,49503,US,LEED-NC v2009,60.0,Gold,3/23/12 0:00,Yes,Corporate: Privately Held,47474.0,17543.0,Multi-Family Residential: Apartment,Brookstone Capital,10/1/10 0:00
61125,1000009689,No,Serrano Lofts LDHA LP,17 Williams Street SW,Grand Rapids,MI,49503,US,LEED-NC v2009,65.0,Gold,5/9/12 0:00,Yes,Corporate: Privately Held,16333.0,9580.0,Multi-Family Residential: Apartment,Brookstone Capital,10/1/10 0:00
61145,1000009713,No,Penn Jersey Distribution Center,9301 Blue Grass Road,Philadelphia,PA,19114,US,LEED-NC v2009,55.0,Silver,8/5/11 0:00,Yes,Corporate: Privately Held,255440.0,1772314.0,"Warehouse and Distribution Center: Nonrefrigerated, Distribu",DP Partners,10/3/10 0:00
61212,1000009801,No,Sun Products Bowling Green Dist Ctr,487 Central Ave.,Bowling Green,KY,42101,US,LEED-NC v2009,42.0,Certified,3/4/13 0:00,Yes,Corporate: Privately Held,1409200.0,4260604.0,"Warehouse and Distribution Center: Nonrefrigerated, Distribu",SUNPRO (KY) LLC,10/7/10 0:00
61296,1000009914,No,Atlanta Beverage Company,1250 Atlanta Industrial Drive,Marietta,GA,30066,US,LEED-NC v2009,41.0,Certified,11/26/12 0:00,Yes,Corporate: Privately Held,113353.0,408407.0,"Warehouse and Distribution Center: Nonrefrigerated, Distribu",Atlanta Beverage Company,10/13/10 0:00
61324,1000009954,No,Roundhouse - Artist Live/Work,10 Leonard Street,Beacon,NY,12508,US,LEED-NC v2009,48.0,,,No,Corporate: Privately Held,9908.0,28668.0,Multi-Family Residential: Condominium,10 Boulevard LLC,10/14/10 0:00
61355,1000009986,No,Lurvey Landscape Supply,2550 East Dempster Street,Des Plaines,IL,60016,US,LEED-NC v2009,62.0,Gold,7/30/12 0:00,Yes,Corporate: Privately Held,11480.44,130300.0,Office: Mixed-Use,Lurvey Landscape Supply,10/15/10 0:00
61383,1000010025,No,Lacombe SSA,64285 Hwy 434,Lacombe,LA,70445,US,LEED-NC v2009,52.0,Silver,8/19/11 0:00,Yes,Corporate: Privately Held,11772.0,89995.0,Office: Government,LBA Construction,10/19/10 0:00
61393,1000010037,No,PDP Mission Hills 1 LLC,11333 Sepulveda Blvd.,Mission Hills,CA,91345,US,LEED-NC v2009,60.0,Gold,7/11/13 0:00,Yes,Corporate: Privately Held,124059.0,296029.0,"Health Care: Outpatient, Office (Diagnostic)",PDP Mission Hills 1 LLC,10/19/10 0:00
61420,1000010075,No,Gerald A Martin Office,4901 Mcleod Road NE,Albuquerque,NM,87112,US,LEED-NC v2009,52.0,Silver,7/24/13 0:00,Yes,Corporate: Privately Held,20890.0,64378.0,Office: Administrative/Professional,Gerald A Martin Limited,10/20/10 0:00
61627,1000010293,No,Data Online Office Building,210 South Street,New Providence,NJ,7974,US,LEED-NC v2009,56.0,,,No,Corporate: Privately Held,13449.0,33582.0,Office: Other Office,"Cottage Street Associates, L.P.",10/25/10 0:00
61708,1000010380,No,Kohler Global Communications Building,444 Highland Drive,Kohler,WI,53044,US,LEED-NC v2009,67.0,Gold,10/25/12 0:00,Yes,Corporate: Privately Held,80762.0,1803997.0,Office: Mixed-Use,The Kohler Co.,10/26/10 0:00
61889,1000010586,No,Zingermans Deli,422 Detroit Street,Ann Arbor,MI,48104,US,LEED-NC v2009,61.0,Gold,3/17/14 0:00,Yes,Corporate: Privately Held,18250.0,18283.0,Retail: Restaurant/Cafeteria,Zingerman's Delicatessen,11/1/10 0:00
61959,1000010665,No,RSI Office Building,200 Avenue I,Alvin,TX,77511,US,LEED-NC v2009,56.0,Silver,9/16/13 0:00,Yes,Corporate: Privately Held,4660.0,12250.0,Office: Administrative/Professional,"Reactor Services Intl., Inc.",11/3/10 0:00
62000,1000010718,No,Nunnally Chevrolet Dealership,2700 SE Moberly,Bentonville,AR,72712,US,LEED-NC v2009,43.0,Certified,8/14/12 0:00,Yes,Corporate: Privately Held,35726.0,197648.0,Retail: Vehicle Dealership,George Nunnally Chevrolet,11/5/10 0:00
62001,1000010719,No,Xcel Service Center,Clementa Ave SW,Montrose,MN,55390,US,LEED-NC v2009,40.0,Certified,4/23/13 0:00,Yes,Corporate: Privately Held,15900.0,200366.0,Service: Other Service,Xcel Energy,11/5/10 0:00
62051,1000010787,No,Dimmitt EUROCARS,3333 Gandy Blvd.,Pinellas Park,FL,33781,US,LEED-NC v2009,53.0,Silver,4/26/12 0:00,Yes,Corporate: Privately Held,14895.0,172062.0,Retail: Vehicle Dealership,DEW Luxury Motor Cars,11/9/10 0:00
62058,1000010794,No,Curry Subaru-Hyundai,3040 East Main St.,Cortlandt Manor,NY,10567,US,LEED-NC v2009,43.0,Certified,12/2/14 0:00,Yes,Corporate: Privately Held,29913.56,250877.0,Retail: Vehicle Dealership,"Curry Properties, LLC",11/9/10 0:00
62066,1000010802,No,The Monroe,1141 E. Monroe,Springfield,MO,65807,US,LEED-NC v2009,42.0,Certified,12/28/12 0:00,Yes,Corporate: Privately Held,52090.0,40987.0,Multi-Family Residential: Apartment,Miller-O'Reilly,11/9/10 0:00
62075,1000010817,No,Piedmont Federal Savings Bank,201 S. Stratford Rd,Winston Salem,NC,27103,US,LEED-NC v2009,51.0,Silver,9/16/13 0:00,Yes,Corporate: Privately Held,61075.0,148104.0,Office: Financial,Piedmont Federal Savings Bank,11/10/10 0:00
62085,1000010828,No,TD Bank - Wayland MA - Boston Post Road,54 Boston Post Road,Wayland,MA,1778,US,LEED-NC v2009,53.0,Silver,4/27/12 0:00,Yes,Corporate: Privately Held,2980.0,55933.0,Retail: Bank Branch,TD Bank,11/11/10 0:00
62087,1000010831,No,TD Bank - Framingham MA - 901 Edgell Rd,900 Edgell Rd,Framingham,MA,1701,US,LEED-NC v2009,66.0,Gold,6/5/12 0:00,Yes,Corporate: Privately Held,2920.0,30658.0,Retail: Bank Branch,TD Bank,11/11/10 0:00
62169,1000010957,No,McLean Personal Storage,1315 Beverly Road,McLean,VA,22101,US,LEED-NC v2009,60.0,Gold,9/19/13 0:00,Yes,Corporate: Privately Held,76343.0,24807.0,Warehouse and Distribution Center: Self Storage Units,"Second Madison Building Associates, LLC",11/16/10 0:00
62179,1000010968,No,Indiana Furniture Dubois Offices,4897 E 450 N,Dubois,IN,47527,US,LEED-NC v2009,40.0,Certified,2/26/13 0:00,Yes,Corporate: Privately Held,1935.0,28192.0,Office: Mixed-Use,Indiana Furniture Industries,11/16/10 0:00
62196,1000010993,No,140 State Street,140 State Street,Moonachie,NJ,7074,US,LEED-NC v2009,41.0,Certified,2/21/14 0:00,Yes,Corporate: Privately Held,71449.0,336743.0,Warehouse and Distribution Center: Warehouse,"140 State Street, LLC",11/17/10 0:00
62198,1000010995,No,Veolia - Muskego,W144 S6350 College Court,Muskego,WI,53150,US,LEED-NC v2009,46.0,Certified,10/26/11 0:00,Yes,Corporate: Privately Held,20450.0,85785.0,Service: Vehicle Service/Repair,Veolia Environmental Services,11/17/10 0:00
62209,1000011007,No,RHOJ CHS Central Business Office,257 BancorpSouth Parkway,Jackson,TN,38301,US,LEED-NC v2009,54.0,Silver,1/30/13 0:00,Yes,Corporate: Privately Held,41700.0,189050.0,Office: Government,Gary Taylor Investment Co.,11/17/10 0:00
62260,1000011076,No,Subway Restaurant,1747 E. Markland Ave,Kokomo,IN,46901,US,LEED-NC v2009,46.0,Certified,5/30/13 0:00,Yes,Corporate: Privately Held,2015.0,20794.0,Retail: Fast Food,Estep & Company,11/22/10 0:00
62293,1000011116,No,K2,365 N. Halsted Street,Chicago,IL,60661,US,LEED-NC v2009,54.0,Silver,9/16/14 0:00,Yes,Corporate: Privately Held,608997.0,70057.0,Multi-Family Residential: Apartment,Fifield Realty Corp,11/23/10 0:00
62332,1000011169,No,QIAGEN Germantown Campus Expansion,19300 Germantown Road,Germantown,MD,20874,US,LEED-NC v2009,50.0,Silver,3/25/14 0:00,Yes,Corporate: Privately Held,49610.0,152247.0,Laboratory,"QIAGEN, Inc.",11/29/10 0:00
62336,1000011173,No,1214 FIFTH AVENUE,1214 5th Avenue,New York,NY,10029,US,LEED-NC v2009,56.0,Silver,9/13/13 0:00,Yes,Corporate: Privately Held,389309.0,16521.0,Multi-Unit Residence,Mt Sinai School Of Medicine,11/29/10 0:00
62404,1000011261,No,VWR International - Visalia,8711 West Riggin Ave.,Visalia,CA,93291,US,LEED-NC v2009,55.0,Silver,7/25/13 0:00,Yes,Corporate: Privately Held,503888.0,1156725.0,"Warehouse and Distribution Center: Nonrefrigerated, Distribu","VWR International,LLC",12/2/10 0:00
62454,1000011328,No,Facebook FRC1AB Datacenter,1291 Old Caroleen Road,Forest City,NC,28043,US,LEED-NC v2009,69.0,Gold,5/17/13 0:00,Yes,Corporate: Privately Held,370350.0,1272823.0,Datacenter,Facebook,12/6/10 0:00
62478,1000011357,No,Schluter Systems,100 Germany Circle,McCarran,NV,89434,US,LEED-NC v2009,67.0,Gold,10/19/12 0:00,Yes,Corporate: Privately Held,97366.0,304920.0,"Warehouse and Distribution Center: Nonrefrigerated, Distribu",Schluter Systems LP,12/7/10 0:00
62507,1000011400,No,Mercado del Barrio,Cesar Chavez Parkway & Main St,San Diego,CA,92113,US,LEED-NC v2009,41.0,Certified,4/10/13 0:00,Yes,Corporate: Privately Held,139104.0,132995.0,Multi-Family Residential: Apartment,Chelsea Investment,12/8/10 0:00
62560,1000011503,No,Bell Helicopter Cafeteria,600 E. Hurst Blvd.,Fort Worth,TX,76053,US,LEED-NC v2009,52.0,Silver,1/16/13 0:00,Yes,Corporate: Privately Held,28863.0,63350.0,Retail: Restaurant/Cafeteria,Jones Lang LaSalle,12/10/10 0:00
62606,1000011570,No,Skybox Apartments,1425 Villard Street,Eugene,OR,97403,US,LEED-NC v2009,60.0,Gold,2/29/12 0:00,Yes,Corporate: Privately Held,94522.0,34280.0,Multi-Family Residential: Apartment,Project^,12/14/10 0:00
62623,1000011592,No,Albatros North America Production Facili,6 McCrea Hill Road,Ballston Spa,NY,12020,US,LEED-NC v2009,52.0,Silver,7/16/13 0:00,Yes,Corporate: Privately Held,36500.0,204803.0,Industrial Manufacturing,Albatros North America,12/15/10 0:00
62657,1000011644,No,Meriter Deforest,4500 Savannah Drive,Deforest,WI,53532,US,LEED-NC v2009,48.0,Certified,6/6/13 0:00,Yes,Corporate: Privately Held,28128.0,218027.0,Health Care: Clinic/Other Outpatient,Meriter Hospital,12/16/10 0:00
62670,1000011658,No,Hypertherm Heater Road,71 Heater Road,Lebanon,NH,3766,US,LEED-NC v2009,62.0,Gold,12/30/13 0:00,Yes,Corporate: Privately Held,155847.0,1007267.0,Commercial Office,Hypertherm Inc,12/17/10 0:00
62698,1000011692,No,Four Points Tallahassee Downtown,316 W. Tennessee St.,Tallahassee,FL,32301,US,LEED-NC v2009,53.0,Silver,2/25/14 0:00,Yes,Corporate: Privately Held,100403.0,101659.0,"Lodging: Hotel/Motel/Resort, Full Service","Union Hotel Company Tallahassee, RLLLP",12/20/10 0:00
62754,1000011757,No,Princetel,2560 East State Street,Hamilton,NJ,8619,US,LEED-NC v2009,83.0,Platinum,10/20/14 0:00,Yes,Corporate: Privately Held,42880.0,140496.0,Industrial Manufacturing,"Princetel, Inc.",12/22/10 0:00
62805,1000011819,No,Net Jets Corporate Office Building,4151 Bridgeway Ave.,Columbus,OH,43219,US,LEED-NC v2009,43.0,Certified,5/14/13 0:00,Yes,Corporate: Privately Held,146625.0,378100.0,Office: Administrative/Professional,The Daimler Group,12/27/10 0:00
62814,1000011833,No,VA Jacksonville Outpatient Clinic,1640 N. Jefferson St.,Jacksonville,FL,32209,US,LEED-NC v2009,56.0,Silver,10/3/13 0:00,Yes,Corporate: Privately Held,136285.0,422025.0,Health Care: Clinic/Other Outpatient,"Jacksonville VA, LLC",12/28/10 0:00
62822,1000011842,No,UW Health Yahara Clinic,1050 East Broadway,Monona,WI,53716,US,LEED-NC v2009,43.0,Certified,11/5/12 0:00,Yes,Corporate: Privately Held,32656.0,151060.0,Health Care: Clinic/Other Outpatient,Yahara LLC,12/29/10 0:00
62824,1000011844,No,Crash Pad,29 Johnson Street,Chattanooga,TN,37408,US,LEED-NC v2009,83.0,Platinum,8/29/12 0:00,Yes,Corporate: Privately Held,4320.0,47043.0,Lodging: Other lodging,The Crash Pad,12/29/10 0:00
62832,1000011853,No,Neopal,5100 Cross Continents Drive,Houston,TX,77032,US,LEED-NC v2009,48.0,,,No,Corporate: Privately Held,115000.0,540740.0,Warehouse: Nonrefrigerated Distribution/Shipping,VSD LLC,12/31/10 0:00
62871,1000011901,No,Kenny Ross Toyota Dealership,8952 University Blvd.,Coraopolis,PA,15108,US,LEED-NC v2009,44.0,Certified,4/15/13 0:00,Yes,Corporate: Privately Held,47771.0,474804.0,Retail: Vehicle Dealership,Ross Development Company,1/4/11 0:00
62882,1000011913,No,BendBroadband Vault,20845 NE Sockeye Place,Bend,OR,97701,US,LEED-NC v2009,64.0,Gold,10/14/11 0:00,Yes,Corporate: Privately Held,28130.0,208932.0,Datacenter,Project Management,1/4/11 0:00
62913,1000011949,No,4310 SW Macadam,4310 SW Macadam,Portland,OR,97203,US,LEED-NC v2009,54.0,Silver,3/13/15 0:00,Yes,Corporate: Privately Held,64723.0,54142.0,Office: Government,4310 Building LLC,1/5/11 0:00
62914,1000011950,No,Youthland on Glenway Avenue,4500 Glenway Avenue,Cincinnati,OH,45205,US,LEED-NC v2009,41.0,Certified,8/13/12 0:00,Yes,Corporate: Privately Held,10440.0,41474.0,Core Learning Space: Preschool/Daycare,Daffin Development Company,1/5/11 0:00
62958,1000012003,No,Commons at Southfield Highlands Bldg 1,75 Parkview Rd.,South Weymouth,MA,2190,US,LEED-NC v2009,51.0,Silver,5/1/13 0:00,Yes,Corporate: Privately Held,70010.0,72800.0,Multi-Family Residential: Apartment,John M. Corcoran & Co.,1/7/11 0:00
62986,1000012040,No,Constitution Square RB2,140 M Street NE,Washington,DC,20002,US,LEED-NC v2009,61.0,Gold,7/21/14 0:00,Yes,Corporate: Privately Held,185341.0,16831.0,Multi-Family Residential: Apartment,"Stonebridge Associates, LLC",1/10/11 0:00
63077,1000012146,No,Signature Chicago OHare Terminal and GSE,Patton Road,Chicago,IL,60666,US,LEED-NC v2009,52.0,Silver,5/23/13 0:00,Yes,Corporate: Privately Held,9150.0,178596.0,Public Assembly: Other Assembly,Signature Flight Support,1/11/11 0:00
63084,1000012154,No,Range Marcellus,3000 Town Center Boulevard,Canonsburg,PA,15101,US,LEED-NC v2009,41.0,Certified,7/9/12 0:00,Yes,Corporate: Privately Held,182619.0,574992.0,Office: Administrative/Professional,Horizon Properties / Southpointe North,1/11/11 0:00
63254,1000012368,No,Mercy Cancer Center,701 10th Street SE,Cedar Rapids,IA,52403-1292,US,LEED-NC v2009,42.0,Certified,8/9/12 0:00,Yes,Corporate: Privately Held,78821.0,191925.0,Health Care: Clinic/Other Outpatient,Mercy Medical Center,1/18/11 0:00
63255,1000012369,No,Airlie Pavilion,6809 Airlie Road,Warrenton,VA,20187,US,LEED-NC v2009,60.0,Gold,9/4/12 0:00,Yes,Corporate: Privately Held,3590.0,34579.0,Public Assembly: Convention Center,Airlie Foundation,1/18/11 0:00
63261,1000012375,No,Ovation,8231 Crestwood Heights Drive,McLean,VA,22102,US,LEED-NC v2009,62.0,Gold,8/29/14 0:00,Yes,Corporate: Privately Held,395700.0,60851.0,Multi-Family Residential: Apartment,Northwestern Mutual,1/18/11 0:00
63290,1000012412,No,UPRR Strauss Intermodal,9051 County Rd A017,Santa Teresa,NM,88008,US,LEED-NC v2009,54.0,,,No,Corporate: Privately Held,8146.0,143713.0,Office: Administrative/Professional,Union Pacific Railroad,1/20/11 0:00
63359,1000012509,No,Bay Valley Foods Expansion,1800 Steward Road,Rochelle,IL,61068,US,LEED-NC v2009,40.0,Certified,4/7/14 0:00,Yes,Corporate: Privately Held,336585.0,1743998.0,"Warehouse and Distribution Center: Nonrefrigerated, Distribu",DbHMS Design Build Engineering,1/24/11 0:00
63378,1000012536,No,New Urology Center,2000 Joseph E. Sanker Boulevard,Cincinnati,OH,45212,US,LEED-NC v2009,45.0,Certified,7/23/14 0:00,Yes,Corporate: Privately Held,56455.0,180245.0,Health Care: Clinic/Other Outpatient,The Urology Group,1/25/11 0:00
63467,1000012646,No,Greatbatch Medical - Rapid Prototype Cen,Kroemer Road,Fort Wayne,IN,46803,US,LEED-NC v2009,41.0,Certified,1/18/13 0:00,Yes,Corporate: Privately Held,80236.0,621988.0,Industrial Manufacturing,Greatbatch Medical,1/31/11 0:00
63544,1000012743,No,Starling FishHawk Information Center,Courtside View Dr.,Lithia,FL,33547,US,LEED-NC v2009,53.0,Silver,3/19/12 0:00,Yes,Corporate: Privately Held,3433.0,76460.0,Public Assembly: Recreation,Newland Communities,2/2/11 0:00
63560,1000012762,No,Springfield 1 Hy-vee,1720 West Battlefield Rd.,Springfield,MO,65807,US,LEED-NC v2009,40.0,Certified,5/24/13 0:00,Yes,Corporate: Privately Held,86039.0,377825.0,Retail: Grocery Store/Food Market,"Hy-Vee, Inc.",2/3/11 0:00
63587,1000012799,No,Raleigh Hyatt Place,710 Corporate Center Drive,Raleigh,NC,27607,US,LEED-NC v2009,42.0,Certified,1/10/14 0:00,Yes,Corporate: Privately Held,93790.0,185130.0,"Lodging: Hotel/Motel/Resort, Full Service",Southern States Management,2/4/11 0:00
63632,1000012858,No,Crane Worldwide,1500 Rankin Rd.,Houston,TX,77032,US,LEED-NC v2009,44.0,Certified,6/17/13 0:00,Yes,Corporate: Privately Held,305169.0,963756.0,Warehouse and Distribution Center: Warehouse,Crane Worldwide,2/7/11 0:00
63727,1000012992,No,Echoview Fiber Mill,76 Jupiter Road,Weaverville,NC,28787,US,LEED-NC v2009,65.0,Gold,6/4/13 0:00,Yes,Corporate: Privately Held,17250.0,183819.0,Industrial Manufacturing,Echoview Fiber Mill,2/12/11 0:00
63760,1000013027,No,Mercury Corporate Headquarters,150 Mercury Village Drive,Durango,CO,81301,US,LEED-NC v2009,63.0,Gold,8/19/14 0:00,Yes,Corporate: Privately Held,80478.0,1047158.0,Office: Administrative/Professional,Mercury,2/14/11 0:00
63834,1000013121,No,Building 1B,Tri Cities Research District,Richland,WA,99354,US,LEED-NC v2009,55.0,Silver,5/30/12 0:00,Yes,Corporate: Privately Held,16935.0,75847.0,Laboratory,"Innovation Center TCRD, LLC",2/17/11 0:00
63836,1000013123,No,LaFontaine Chevrolet Dexter,7120 Dexter-Ann Arbor Rd.,Dexter,MI,48130,US,LEED-NC v2009,52.0,Silver,11/26/12 0:00,Yes,Corporate: Privately Held,33485.0,363290.0,Retail: Vehicle Dealership,"AML Dexter, LLC",2/17/11 0:00
63886,1000013185,No,US Customs and Immigration Services,5629 Hoover Boulevard,Tampa,FL,33634,US,LEED-NC v2009,65.0,Gold,6/14/13 0:00,Yes,Corporate: Privately Held,43345.0,273032.0,Office: Government,Procacci Development Corporation,2/21/11 0:00
63903,1000013203,No,Fairfield Inn and Suites,325 W 33rd Street,New York,NY,10001,US,LEED-NC v2009,51.0,Silver,3/16/15 0:00,Yes,Corporate: Privately Held,107253.0,8398.0,"Lodging: Hotel/Motel/Resort, Full Service",OTO Development LLC,2/22/11 0:00
63931,1000013236,No,Medline,753 County Road 4 E,Prattville,AL,36067,US,LEED-NC v2009,40.0,Certified,10/8/13 0:00,Yes,Corporate: Privately Held,350000.0,1374048.0,"Warehouse and Distribution Center: Nonrefrigerated, Distribu","Medline Industries, Inc.",2/23/11 0:00
63980,1000013311,No,NYLO Dallas South Side,1325 South Lamar,Dallas,TX,75215,US,LEED-NC v2009,65.0,Gold,6/17/13 0:00,Yes,Corporate: Privately Held,61021.0,40491.0,"Lodging: Hotel/Motel/Resort, Full Service",Matthews Southwest,2/25/11 0:00
63984,1000013315,No,Johnson Controls AE Mfg Facility,Horizon Business Park,Riverside,MO,64150,US,LEED-NC v2009,52.0,Silver,10/25/11 0:00,Yes,Corporate: Privately Held,172544.0,1067955.0,Industrial Manufacturing,Johnson Controls,2/25/11 0:00
64047,1000013401,No,T5 Wholesale Data Center,3200 Web Bridge Road,Alpharetta,GA,30009,US,LEED-NC v2009,55.0,Silver,7/3/12 0:00,Yes,Corporate: Privately Held,100500.0,522720.0,Datacenter,T5,3/1/11 0:00
64061,1000013416,No,Juniper Networks Campus Building IIA,1133 Innovation Way,Sunnyvale,CA,94089,US,LEED-NC v2009,63.0,Gold,6/12/13 0:00,Yes,Corporate: Privately Held,318712.0,43284.0,Commercial Office,Juniper Networks,3/1/11 0:00
64062,1000013417,No,Juniper Networks Campus Building IIB,1194 N. Mathilda Ave.,Sunnyvale,CA,94089,US,LEED-NC v2009,80.0,Platinum,6/25/13 0:00,Yes,Corporate: Privately Held,319254.0,418390.0,Commercial Office,Juniper Networks,3/1/11 0:00
64222,1000013613,No,Broadway Lofts,200 E. Broadway,Glendale,CA,91205,US,LEED-NC v2009,51.0,Silver,10/3/13 0:00,Yes,Corporate: Privately Held,192906.0,37522.0,Office: Mixed-Use,"American Multifamily, Inc.",3/10/11 0:00
64223,1000013615,No,Mariposa Campus - Human Service Facility,5362 Lemee Lane,Mariposa,CA,95338,US,LEED-NC v2009,40.0,Certified,4/10/13 0:00,Yes,Corporate: Privately Held,33597.0,149769.0,Office: Mixed-Use,DesCor Mariposa LLC,3/10/11 0:00
64232,1000013642,No,Adobe Utah Campus,3750 North East Frontage Road,Lehi,UT,84043,US,LEED-NC v2009,63.0,Gold,11/14/13 0:00,Yes,Corporate: Privately Held,270000.0,1235916.0,Office: Administrative/Professional,Adobe Systems,3/10/11 0:00
64240,1000013652,No,Blue Springs Hy-Vee,625 West Hwy 40,Blue Springs,MO,64014,US,LEED-NC v2009,50.0,Silver,11/30/12 0:00,Yes,Corporate: Privately Held,85186.0,354496.0,Retail: Grocery Store/Food Market,"Hy-Vee, Inc.",3/11/11 0:00
64279,1000013703,No,Chihuly Garden and Glass Exhibition,305 Harrison Street,Seattle,WA,98109,US,LEED-NC v2009,50.0,Silver,11/12/12 0:00,Yes,Corporate: Privately Held,29351.0,98908.0,Public Assembly: Other Assembly,"Center Art, LLC",3/14/11 0:00
64292,1000013721,No,Verst Group Logistics Warehouse Addition,2200 Gateway Blvd,Hebron,KY,41048,US,LEED-NC v2009,63.0,Gold,10/25/12 0:00,Yes,Corporate: Privately Held,201600.0,451282.0,"Warehouse and Distribution Center: Nonrefrigerated, Distribu",Dry Ridge Capital,3/15/11 0:00
64372,1000013827,No,Newark Avenue and 3rd Street,Newark Avenue And 3rd Street,Jersey City,NJ,7303,US,LEED-NC v2009,41.0,Certified,12/4/13 0:00,Yes,Corporate: Privately Held,42163.0,12027.0,Multi-Family Residential: Apartment,Ironstate Development,3/18/11 0:00
64376,1000013833,No,CEFCU - Chillicothe Member Center,To Be Determined,Chillicothe,IL,61523,US,LEED-NC v2009,48.0,Certified,10/4/12 0:00,Yes,Corporate: Privately Held,5361.0,70713.0,Retail: Bank Branch,CEFCU,3/20/11 0:00
64506,1000014038,No,Blackhawk Apartments,840 W. Blackhawk Street,Chicago,IL,60642,US,LEED-NC v2009,51.0,Silver,12/17/12 0:00,Yes,Corporate: Privately Held,347600.0,50510.0,Multi-Family Residential: Apartment,Furniture LLC,3/28/11 0:00
64527,1000014064,No,Witherspoon and Sons,424 SW Fourth Avenue,Portland,OR,97204,US,LEED-NC v2009,42.0,Certified,6/25/14 0:00,Yes,Corporate: Privately Held,13910.0,5200.0,Office: Mixed-Use,"Witherspoon & Sons, LLC",3/29/11 0:00
64588,1000014136,No,BMCD 9300/Central Building and Addition,9300 Ward Parkway,Kansas City,MO,64114,US,LEED-NC v2009,52.0,Silver,11/25/13 0:00,Yes,Corporate: Privately Held,264857.0,392223.0,Office: Administrative/Professional,"James Campbell Company, LLC",4/1/11 0:00
64615,1000014165,No,Homewood Suites,2010 Old Keene Mill Road,Springfield,VA,22150,US,LEED-NC v2009,51.0,Silver,7/25/13 0:00,Yes,Corporate: Privately Held,119052.0,71177.0,"Lodging: Hotel/Motel/Resort, Limited Service",WPM Construction,4/2/11 0:00
64628,1000014182,No,Rapid City ICE,2350 Sophia Court,Rapid City,SD,57702,US,LEED-NC v2009,52.0,Silver,6/3/13 0:00,Yes,Corporate: Privately Held,29211.0,121329.0,Office: Government,Mark Aukamp,4/4/11 0:00
64706,1000014279,No,Suntek 9450 Building,9450 SW Barnes Road,Portland,OR,97225,US,LEED-NC v2009,52.0,Silver,5/28/13 0:00,Yes,Corporate: Privately Held,33049.0,99557.0,Office: Mixed-Use,"North Pacific Management, Inc.",4/6/11 0:00
64735,1000014320,No,KDC Lot 8,489 N. 8th Street,Hood River,OR,97031,US,LEED-NC v2009,64.0,Gold,2/13/13 0:00,Yes,Corporate: Privately Held,30800.0,69074.0,Industrial Manufacturing,Hood River Equities LLC,4/8/11 0:00
64737,1000014322,No,Encana MCBU Regional Headquarters,5851 Legacy Circle,Plano,TX,75024,US,LEED-NC v2009,55.0,Silver,3/21/14 0:00,Yes,Corporate: Privately Held,296000.0,320349.0,Office: Administrative/Professional,KDC,4/8/11 0:00
64761,1000014361,No,Lindy Paving,1807 Shenango Rd,New Galilee,PA,16141,US,LEED-NC v2009,50.0,Silver,3/21/14 0:00,Yes,Corporate: Privately Held,28800.0,376140.0,Datacenter,Lindy Paving,4/11/11 0:00
64762,1000014362,No,Hampton Inn Evansville,5701 North Highway 41,Evansville,IN,47711,US,LEED-NC v2009,42.0,Certified,6/10/13 0:00,Yes,Corporate: Privately Held,70605.0,171332.0,"Lodging: Hotel/Motel/Resort, Limited Service",Dunn Hospitality Group,4/11/11 0:00
64784,1000014394,No,Zephyr Lodge,Northstar Resort,Truckee,CA,96161,US,LEED-NC v2009,40.0,Certified,7/25/12 0:00,Yes,Corporate: Privately Held,17946.0,151635.0,Retail: Restaurant/Cafeteria,Vail Resorts,4/12/11 0:00
64906,1000014524,No,Hanover Rice Village Apartments,2455 Dunstan Road,Houston,TX,77005,US,LEED-NC v2009,41.0,Certified,5/5/14 0:00,Yes,Corporate: Privately Held,734030.0,215222.0,Multi-Family Residential: Apartment,Hanover RS Limited Partnership,4/13/11 0:00
65066,1000014689,No,2020 Lawrence,2020 Lawrence Street,Denver,CO,80205,US,LEED-NC v2009,64.0,Gold,9/13/13 0:00,Yes,Corporate: Privately Held,366261.0,43852.0,Multi-Unit Residence,Zocalo Community Development,4/14/11 0:00
65363,1000015002,No,Omni Hotel Nashville,250 S. 5th Ave.,Nashville,TN,37203,US,LEED-NC v2009,53.0,Silver,2/13/14 0:00,Yes,Corporate: Privately Held,806000.0,142546.0,"Lodging: Hotel/Motel/Resort, Full Service",TRT Holdings,4/18/11 0:00
65446,1000015095,No,DPR Headquarters,222 N. 44th Street,Phoenix,AZ,85034,US,LEED-NC v2009,82.0,Platinum,7/11/12 0:00,Yes,Corporate: Privately Held,15290.0,63011.0,Office: Administrative/Professional,"DPR Construction, Inc",4/19/11 0:00
65627,1000015295,No,111 River Park LLC,111 River Park Drive,Dayton,OH,45402,US,LEED-NC v2009,60.0,Gold,2/21/14 0:00,Yes,Corporate: Privately Held,141272.0,363726.0,Office: Mixed-Use,University Of Dayton/GE,4/21/11 0:00
65665,1000015350,No,GJC West Hangar III,6101 Industrial Highway,Gary,IN,46406,US,LEED-NC v2009,62.0,Gold,4/6/14 0:00,Yes,Corporate: Privately Held,39114.0,76608.0,Service: Other Service,Gary Jet Center,4/25/11 0:00
65731,1000015436,No,The Smile! Building,49 South Main Street,Concord,NH,3301,US,LEED-NC v2009,44.0,Certified,4/11/12 0:00,Yes,Corporate: Privately Held,92292.0,23114.0,Office: Mixed-Use,The Duprey Center LLC,4/28/11 0:00
65758,1000015473,No,Atmos Energy Kerrville Service Center,2315 E. Main Street,Kerrville,TX,78028,US,LEED-NC v2009,63.0,Gold,4/16/12 0:00,Yes,Corporate: Privately Held,10844.0,148800.0,Service: Other Service,Atmos Energy,5/2/11 0:00
65784,1000015503,No,Fisher Contracting,3401 Contractor Drive,Midland,MI,48640,US,LEED-NC v2009,51.0,Silver,5/15/15 0:00,Yes,Corporate: Privately Held,29522.0,1190159.0,Service: Other Service,Fisher Contracting,5/3/11 0:00
65785,1000015504,No,Houston Dynamo Stadium,2200 Texas St.,Houston,TX,77003,US,LEED-NC v2009,50.0,Silver,10/12/12 0:00,Yes,Corporate: Privately Held,343500.0,529036.0,Public Assembly: Stadium/Arena,AEGGOLDEN BOYBRENER INTERNATIONAL GROUP,5/3/11 0:00
65787,1000015506,No,260 W 26th Street,260 W 26th Street,New York,NY,10001,US,LEED-NC v2009,50.0,Silver,2/11/14 0:00,Yes,Corporate: Privately Held,214892.14,23819.0,Multi-Family Residential: Apartment,Artimus Construction,5/3/11 0:00
65795,1000015514,No,Coppins Well,1200 Madison,Seattle,WA,98104,US,LEED-NC v2009,51.0,Silver,5/2/13 0:00,Yes,Corporate: Privately Held,219750.0,25693.0,Multi-Family Residential: Apartment,"Holland Construction, Inc.",5/3/11 0:00
65810,1000015538,No,5 Channel Center,5 Channel Center,Boston,MA,2210,US,LEED-NC v2009,49.0,,,No,Corporate: Privately Held,51381.0,10550.0,Laboratory,Fraunhofer,5/4/11 0:00
65912,1000015664,No,Merritt Centric,10702 Red Run Blvd,Owings Mills,MD,21117,US,LEED-NC v2009,60.0,Gold,9/19/13 0:00,Yes,Corporate: Privately Held,40170.0,248574.0,Office: Other Office,"Merritt Properties, LLC",5/10/11 0:00
65925,1000015679,No,Callahan Flanagan Smith and Stock,404 East Genesee Street,Fayetteville,NY,13066,US,LEED-NC v2009,40.0,Certified,8/11/14 0:00,Yes,Corporate: Privately Held,7000.0,35415.0,"Health Care: Outpatient, Office (Diagnostic)","Callahan, Flanagan, Smith & Stock",5/11/11 0:00
65945,1000015701,No,Weir Oil and Gas Headquarters Bldg,601 Weir Way,White Settlement,TX,76108,US,LEED-NC v2009,60.0,Gold,11/14/13 0:00,Yes,Corporate: Privately Held,62189.0,171761.0,Office: Administrative/Professional,Weir Oil & Gas,5/11/11 0:00
65969,1000015736,No,M and T Bank Newburgh Branch,5075 Rt 9W,Newburgh,NY,12550,US,LEED-NC v2009,40.0,Certified,9/18/14 0:00,Yes,Corporate: Privately Held,3400.0,114911.0,Retail: Bank Branch,M&T Bank,5/13/11 0:00
65981,1000015751,No,GLMV Office Renovation,1525 E. Douglas,Wichita,KS,67211,US,LEED-NC v2009,50.0,Silver,5/14/14 0:00,Yes,Corporate: Privately Held,30867.0,37810.0,Office: Administrative/Professional,GLMV Architecture,5/13/11 0:00
66042,1000015847,No,Vista Del Sol Community Center,5901 Aztec Ave.,Twentynine Palms,CA,92277,US,LEED-NC v2009,57.0,Silver,5/21/13 0:00,Yes,Corporate: Privately Held,7675.0,226398.0,Office: Mixed-Use,"Camp Pendleton Quantico Housing, LLC",5/18/11 0:00
66052,1000015858,No,Van Meter Inc - Iowa City,470 Ruppert Rd,Iowa City,IA,52246,US,LEED-NC v2009,60.0,Gold,9/19/12 0:00,Yes,Corporate: Privately Held,22860.0,92230.0,Office: Other Office,Van Meter Industrial,5/18/11 0:00
66057,1000015863,No,GW Electric Co,305 Crossroads Parkway,Bolingbrook,IL,60440,US,LEED-NC v2009,62.0,Gold,10/22/12 0:00,Yes,Corporate: Privately Held,362300.0,849144.0,Industrial Manufacturing,G&W Electric Company,5/18/11 0:00
66129,1000015974,No,ANdAZ Wailea Hotel,3550 Wailea Alanul Drive,Wailea,HI,96753,US,LEED-NC v2009,51.0,Silver,4/18/14 0:00,Yes,Corporate: Privately Held,295447.0,213600.0,"Lodging: Hotel/Motel/Resort, Full Service",Hyatt,5/24/11 0:00
66232,1000016103,No,SalonCentric Distribution Center,11720 Peel Circle,LaVista,NE,68128,US,LEED-NC v2009,47.0,Certified,9/27/12 0:00,Yes,Corporate: Privately Held,82719.0,396770.0,"Warehouse and Distribution Center: Nonrefrigerated, Distribu",SalonCentric,5/31/11 0:00
66252,1000016125,No,The Solberg Company,1520 Brookfield Avenue,Green Bay,WI,54313,US,LEED-NC v2009,44.0,Certified,4/21/14 0:00,Yes,Corporate: Privately Held,19524.0,177657.0,Office: Mixed-Use,The Solberg Company,6/1/11 0:00
66278,1000016157,No,Social Security Administration Office,9715 S. Cottage Grove Avenue,Chicago,IL,60628,US,LEED-NC v2009,54.0,Silver,3/20/13 0:00,Yes,Corporate: Privately Held,18149.0,115400.0,Office: Administrative/Professional,W. D. Schorsch Company,6/2/11 0:00
66290,1000016172,No,Crystal River Power Operations Center,15760 West Powerline Street,Crystal River,FL,34428,US,LEED-NC v2009,50.0,Silver,12/4/12 0:00,Yes,Corporate: Privately Held,60250.0,212832.0,Office: Other Office,Real Estate,6/3/11 0:00
66361,1000016263,No,DOW Agrosciences Kauai Admin Building,1 Mill Rd. Kaumakani,Kauai,HI,96747,US,LEED-NC v2009,55.0,,,No,Corporate: Privately Held,5664.0,41255.0,Office: Administrative/Professional,DOW Agrosciences,6/8/11 0:00
66462,1000016394,No,General Mills - Fort Wayne Distribution,12747 Bluffton Road,Fort Wayne,IN,46809,US,LEED-NC v2009,64.0,Gold,8/6/12 0:00,Yes,Corporate: Privately Held,1511733.0,4227782.0,Warehouse and Distribution Center: Warehouse,The Rockefeller Group,6/13/11 0:00
66491,1000016429,No,Kensington Boston,659 Washington St.,Boston,MA,2111,US,LEED-NC v2009,63.0,Gold,3/11/14 0:00,Yes,Corporate: Privately Held,488475.0,28185.0,Multi-Family Residential: Apartment,Consultant,6/15/11 0:00
66561,1000016516,No,Lorenzo Bomnin Chevrolet,8455 S. Dixie Highway,Miami,FL,33143,US,LEED-NC v2009,51.0,Silver,5/22/14 0:00,Yes,Corporate: Privately Held,34290.0,278195.0,Retail: Vehicle Dealership,"Argonaut Holdings, Inc.",6/17/11 0:00
66692,1000016675,No,Pacific Audi,20460 Hawthorne Blvd,Torrance,CA,90503,US,LEED-NC v2009,64.0,Gold,7/19/13 0:00,Yes,Corporate: Privately Held,45342.0,133698.0,Retail: Vehicle Dealership,Pacific Audi,6/23/11 0:00
66725,1000016728,No,Dansko 796 Warehouse,10 Five Star Drive,West Grove,PA,19390,US,LEED-NC v2009,65.0,Gold,10/22/13 0:00,Yes,Corporate: Privately Held,215219.0,696960.0,Warehouse and Distribution Center: Warehouse,Dansko,6/27/11 0:00
66796,1000016821,No,Springline Architects Office,6346 Smith Bay,Charlotte Amalie,VI,802,US,LEED-NC v2009,80.0,Platinum,9/24/13 0:00,Yes,Corporate: Privately Held,2811.0,51629.0,Office: Administrative/Professional,Springline Architects,6/30/11 0:00
66800,1000016826,No,Bethune Lofts at Buffalo Meter Company,2917 Main Street,Buffalo,NY,14214,US,LEED-NC v2009,51.0,Silver,8/5/14 0:00,Yes,Corporate: Privately Held,102788.0,139392.0,Multi-Family Residential: Apartment,"2915 Main Street, LLC",6/30/11 0:00
66879,1000016934,No,Facebook PRN2 Data Center,735 Connect Way,Prineville,OR,97754,US,LEED-NC v2009,63.0,Gold,3/9/15 0:00,Yes,Corporate: Privately Held,354192.0,1356458.0,Data Center,Facebook,7/6/11 0:00
66944,1000017017,No,Rosen Medical Center,7600 International Drive,Orlando,FL,32819,US,LEED-NC v2009,42.0,Certified,1/23/14 0:00,Yes,Corporate: Privately Held,11700.0,79700.0,Office: Mixed-Use,Rosen Hotels And Resorts,7/11/11 0:00
66951,1000017025,No,Henniges,2750 High Meadow Circle,Auburn Hills,MI,48326,US,LEED-NC v2009,54.0,Silver,11/26/12 0:00,Yes,Corporate: Privately Held,54435.0,638067.0,Office: Mixed-Use,Schostak Brothers And Co.,7/11/11 0:00
66980,1000017061,No,Bradford White Tech Center,Eagle Drive,Middleville,MI,49333,US,LEED-NC v2009,64.0,Gold,7/23/14 0:00,Yes,Corporate: Privately Held,20546.0,155613.0,Office: Mixed-Use,Bradford White,7/13/11 0:00
67006,1000017100,No,Taco Inc Innovation Development Center,1160 Cranston Street,Cranston,RI,2920,US,LEED-NC v2009,62.0,Gold,9/26/14 0:00,Yes,Corporate: Privately Held,17376.0,27559.0,Core Learning Space: Other classroom education,"Taco, Inc",7/14/11 0:00
67010,1000017106,No,Grand Avenue Chauffeured Transportation,186 North First Street,Nashville,TN,37213,US,LEED-NC v2009,60.0,Gold,7/20/12 0:00,Yes,Corporate: Privately Held,54200.0,166705.0,Service: Other Service,Grand Avenue,7/14/11 0:00
67026,1000017127,No,WR Sage West,5250 Brownway Street,Houston,TX,77056,US,LEED-NC v2009,43.0,Certified,6/10/14 0:00,Yes,Corporate: Privately Held,393986.0,77778.0,Multi-Family Residential: Apartment,"White/Peterman Properties, Inc.",7/15/11 0:00
67144,1000017268,No,Hampton Inn - Editors,1729 H Street NW,Washington,DC,20006,US,LEED-NC v2009,63.0,Gold,11/12/14 0:00,Yes,Corporate: Privately Held,74571.0,6160.0,"Lodging: Hotel/Motel/Resort, Limited Service","OTO Development, LLC",7/21/11 0:00
67168,1000017299,No,Maines Darden Foods Distribution Center,3000 Airport Road,Terrell,TX,75161,US,LEED-NC v2009,40.0,Certified,1/14/14 0:00,Yes,Corporate: Privately Held,83070.0,1823556.0,Warehouse and Distribution Center: Refrigerated,Maines Paper & Food Service,7/22/11 0:00
67210,1000017355,No,Radisson Blu at Mall of America,2100 Killebrew Drive,Bloomington,MN,55425,US,LEED-NC v2009,47.0,Certified,4/10/15 0:00,Yes,Corporate: Privately Held,335012.0,92230.0,"Lodging: Hotel/Motel/Resort, Full Service","Radisson Blu MOA, LLC",7/25/11 0:00
67230,1000017390,No,Grand Beach Hotel Surfside-East,9449 Collins Avenue,Surfside,FL,33154,US,LEED-NC v2009,57.0,Silver,12/19/14 0:00,Yes,Corporate: Privately Held,228439.5,74162.0,"Lodging: Hotel/Motel/Resort, Full Service","Beach House Hotel, LLC",7/26/11 0:00
67242,1000017404,No,Hyatt House Hotel - South Side Works,28th And South Water Street,Pittsburgh,PA,15203,US,LEED-NC v2009,42.0,Certified,10/9/13 0:00,Yes,Corporate: Privately Held,111036.0,41820.0,"Lodging: Hotel/Motel/Resort, Select Service","Oxford Concord Sierra Southside Ass., LP",7/26/11 0:00
67248,1000017414,No,Engineering and Operations Building,1001 Charles G Seivers Blvd,Clinton,TN,37716,US,LEED-NC v2009,51.0,Silver,5/7/13 0:00,Yes,Corporate: Privately Held,21735.0,29425.0,Office: Administrative/Professional,Clinton Utilities Board,7/27/11 0:00
67335,1000017521,No,Lex on Orange SITE A,320 N. Central Avenue,Glendale,CA,91203,US,LEED-NC v2009,52.0,,,No,Corporate: Privately Held,120431.0,35703.0,Office: Government,AMLI Residential,8/1/11 0:00
67336,1000017522,No,Lex on Orange SITE B,321 N. Orange Street,Glendale,CA,91203,US,LEED-NC v2009,51.0,Silver,6/2/15 0:00,Yes,Corporate: Privately Held,230368.0,74635.0,Multi-Family Residential: Apartment,AMLI Residential,8/1/11 0:00
67364,1000017554,No,FedEx Ground Distribution Center,12500 W. Branford Street,Burbank,CA,91331,US,LEED-NC v2009,51.0,Silver,7/24/13 0:00,Yes,Corporate: Privately Held,240779.0,1362737.0,"Warehouse and Distribution Center: Nonrefrigerated, Distribu",Scannell Properties,8/2/11 0:00
67377,1000017570,No,Giant Eagle Broadview Heights,Royalton Rd,Broadview Heights,OH,44147,US,LEED-NC v2009,40.0,Certified,10/3/14 0:00,Yes,Corporate: Privately Held,90671.0,405351.0,Retail: Grocery Store/Food Market,Giant Eagle - Aetos,8/3/11 0:00
67380,1000017573,No,BL Harbert International Office Building,210 London Parkway,Birmingham,AL,35211,US,LEED-NC v2009,60.0,Gold,6/25/14 0:00,Yes,Corporate: Privately Held,35905.0,246321.0,Office: Administrative/Professional,BL Harbert International,8/3/11 0:00
67394,1000017592,No,101 Ellwood,101 South Ellwood Avenue,Baltimore,MD,21224,US,LEED-NC v2009,50.0,Silver,5/19/15 0:00,Yes,Corporate: Privately Held,194369.0,50588.0,Multi-Family Residential: Apartment,Focus Development,8/3/11 0:00
67399,1000017597,No,The Martin Apartments,2105 5th Ave.,Seattle,WA,98121,US,LEED-NC v2009,63.0,Gold,4/28/14 0:00,Yes,Corporate: Privately Held,237655.0,16530.0,Multi-Family Residential: Apartment,Vulcan Inc.,8/3/11 0:00
67449,1000017664,No,Southern Eye Associate,113 Doctors Drive,Greenville,SC,29605,US,LEED-NC v2009,46.0,Certified,5/24/13 0:00,Yes,Corporate: Privately Held,12947.0,97196.0,Office: Medical (Non-Diagnostic),Cross Creek Medical Park,8/7/11 0:00
67481,1000017707,No,OverDrive Inc,One OverDrive Way,Garfield Heights,OH,44125,US,LEED-NC v2009,42.0,Certified,4/18/14 0:00,Yes,Corporate: Privately Held,94645.0,534416.0,Office: Administrative/Professional,OverDrive Inc.,8/9/11 0:00
67483,1000017709,No,Mission Bay Block 3 West,1101 Fourth Street,San Francisco,CA,94158,US,LEED-NC v2009,50.0,Silver,9/9/14 0:00,Yes,Corporate: Privately Held,227392.0,47577.0,Multi-Family Residential: Apartment,SummerHill Apartment Communities,8/9/11 0:00
67536,1000017777,No,18 Park,18 Park Avenue,Jersey City,NJ,7305,US,LEED-NC v2009,50.0,Silver,12/17/14 0:00,Yes,Corporate: Privately Held,101972.0,79715.0,Multi-Family Residential: Apartment,KRE Group,8/11/11 0:00
67605,1000017874,No,Commons at Southfield Highlands Bldg 2,Park View Rd.,Weymouth,MA,2190,US,LEED-NC v2009,51.0,Silver,5/1/13 0:00,Yes,Corporate: Privately Held,68331.0,68750.0,Multi-Family Residential: Apartment,John M. Corcoran & Co.,8/15/11 0:00
67606,1000017875,No,Commons at Southfield Highlands Bldg 3,Park View Rd.,Weymouth,MA,2190,US,LEED-NC v2009,50.0,Silver,5/1/13 0:00,Yes,Corporate: Privately Held,150461.0,122970.0,Multi-Family Residential: Apartment,John M. Corcoran & Co.,8/15/11 0:00
67670,1000017958,No,Napa 4 Walgreens,1685 Trancas St.,Napa,CA,94558-3323,US,LEED-NC v2009,43.0,Certified,10/24/13 0:00,Yes,Corporate: Privately Held,14065.0,47247.0,Retail: Other Retail,Pacific Properties,8/18/11 0:00
67674,1000017963,No,ASB Evergreen Data Center,21515 NW Evergreen Parkway,Hillsboro,OR,97124,US,LEED-NC v2009,62.0,Gold,5/29/13 0:00,Yes,Corporate: Privately Held,239993.0,658804.0,Datacenter,ASB,8/18/11 0:00
67762,1000018086,No,Pacific Pointe North - Bldg 1,3815 Schaufele Ave,Long Beach,CA,90808,US,LEED-NC v2009,50.0,Silver,2/19/13 0:00,Yes,Corporate: Privately Held,100926.0,211588.0,Warehouse and Distribution Center: Warehouse,Sares-Regis Group,8/23/11 0:00
67764,1000018088,No,Pacific Pointe North - Bldg 2,3851 Schaufele Ave,Long Beach,CA,90808,US,LEED-NC v2009,52.0,Silver,2/19/13 0:00,Yes,Corporate: Privately Held,39079.0,87516.0,Warehouse and Distribution Center: Warehouse,Sares Regis Group,8/23/11 0:00
67767,1000018091,No,Pacific Pointe North - Bldg 3,3860 McGowen St,Long Beach,CA,90808,US,LEED-NC v2009,50.0,Silver,2/19/13 0:00,Yes,Corporate: Privately Held,31783.0,75677.0,Warehouse and Distribution Center: Warehouse,Sares-Regis Group,8/23/11 0:00
67768,1000018092,No,Pacific Pointe North - Bldg 4,3833 McGowen St,Long Beach,CA,90808,US,LEED-NC v2009,64.0,Gold,2/19/13 0:00,Yes,Corporate: Privately Held,86737.0,172707.0,Warehouse and Distribution Center: Warehouse,Sares Regis Group,8/23/11 0:00
67789,1000018118,No,Lunds on 12th and Hennepin,1201 Hennepin Avenue,Minneapolis,MN,55403,US,LEED-NC v2009,43.0,Certified,4/4/14 0:00,Yes,Corporate: Privately Held,45062.0,47750.0,Retail: Grocery Store/Food Market,"Lund Real Estate Holdings, LLC",8/24/11 0:00
67812,1000018151,No,Hendrick Toyota,Merriam Pointe,Merriam,KS,66203,US,LEED-NC v2009,45.0,Certified,8/5/14 0:00,Yes,Corporate: Privately Held,67240.0,360677.0,Retail: Vehicle Dealership,Hendrick Automotive Group,8/25/11 0:00
67834,1000018178,No,Tansky Sawmill Toyota,6300 Sawmill Road,Dublin,OH,43017,US,LEED-NC v2009,70.0,Gold,10/21/13 0:00,Yes,Corporate: Privately Held,58672.0,214767.0,Retail: Vehicle Dealership,TANSKY SAWMILL TOYOTA,8/26/11 0:00
67875,1000018232,No,Corodata,2305 Harveson Place,Escondido,CA,92029,US,LEED-NC v2009,46.0,Certified,12/17/14 0:00,Yes,Corporate: Privately Held,87698.0,223650.0,"Warehouse and Distribution Center: Nonrefrigerated, Distribu",Hamann Companies,8/30/11 0:00
67902,1000018267,No,135 West 30th Hotel LLC,135 West 30th St.,New York,NY,10001,US,LEED-NC v2009,44.0,,,No,Corporate: Privately Held,123929.0,10225.0,"Lodging: Hotel/Motel/Resort, Select Service","135 W 30 HOTEL PARTNERS, LLC",8/31/11 0:00
67919,1000018286,No,Lexington SSA,2241 Buena Vista Rd.,Lexington,KY,40505,US,LEED-NC v2009,55.0,Silver,4/2/13 0:00,Yes,Corporate: Privately Held,44612.0,141135.0,Office: Government,"Rooker Properties, LLC",9/1/11 0:00
67939,1000018314,No,Endress Hauser Flowtec Building F,2330 Endress Place,Greenwood,IN,46143,US,LEED-NC v2009,46.0,Certified,9/12/13 0:00,Yes,Corporate: Privately Held,91818.0,328354.0,Industrial Manufacturing,"Endress + Hauser Flowtec AG, Div USA",9/2/11 0:00
67940,1000018315,No,Endress Hauser Auto Instru Inc Bdg G,2340 Endress Place,Greenwood,IN,46143,US,LEED-NC v2009,44.0,Certified,9/30/13 0:00,Yes,Corporate: Privately Held,108875.0,362531.0,Industrial Manufacturing,Endress + Hauser Auto Instr Inc Bd G USA,9/2/11 0:00
67966,1000018346,No,All Star Volvo Baton Rouge,10313 Airline Highway,Baton Rouge,LA,70816,US,LEED-NC v2009,54.0,Silver,4/4/13 0:00,Yes,Corporate: Privately Held,15210.0,116992.0,Retail: Vehicle Dealership,All Star Automotive Group,9/5/11 0:00
67983,1000018369,No,Leilani Apartments,10201 Greenwood Ave N,Seattle,WA,98133,US,LEED-NC v2009,46.0,Certified,5/27/14 0:00,Yes,Corporate: Privately Held,219415.0,98727.0,Multi-Family Residential: Apartment,Goodman Real Estate,9/6/11 0:00
68043,1000018451,No,SSA Indianapolis West (Intech Park),6745 Network Place,Indianapolis,IN,46278,US,LEED-NC v2009,41.0,Certified,12/1/12 0:00,Yes,Corporate: Privately Held,13107.0,61637.0,Office: Government,Ambrose Property Group,9/9/11 0:00
68121,1000018553,No,The Premier,8711 Georgia Avenue,Silver Spring,MD,20910,US,LEED-NC v2009,51.0,Silver,9/8/14 0:00,Yes,Corporate: Privately Held,152230.0,31116.0,Multi-Family Residential: Apartment,"Guardian Realty Investors, LLC",9/13/11 0:00
68123,1000018555,No,One City Block - The Congress,19th And Pennsylvania,Denver,CO,80205,US,LEED-NC v2009,52.0,Silver,7/1/14 0:00,Yes,Corporate: Privately Held,74165.0,35650.0,Multi-Family Residential: Apartment,"RedPeak Properties, LLC",9/13/11 0:00
68125,1000018557,No,One City Block - The Washington,18th And Pennsylvania,Denver,CO,80205,US,LEED-NC v2009,54.0,Silver,7/1/14 0:00,Yes,Corporate: Privately Held,88514.0,41229.0,Multi-Family Residential: Apartment,"RedPeak Properties, LLC",9/13/11 0:00
68126,1000018558,No,One City Block - The Commons,18th And Logan,Denver,CO,80205,US,LEED-NC v2009,54.0,Silver,7/1/14 0:00,Yes,Corporate: Privately Held,58126.0,30054.0,Multi-Family Residential: Apartment,"RedPeak Properties, LLC",9/13/11 0:00
68127,1000018559,No,One City Block - The Benedict,19th And Logan,Denver,CO,80205,US,LEED-NC v2009,53.0,Silver,7/1/14 0:00,Yes,Corporate: Privately Held,62821.0,29896.0,Multi-Family Residential: Apartment,"RedPeak Properties, LLC",9/13/11 0:00
68137,1000018572,No,USAO Muskogee,520 Denison Street,Muskogee,OK,74401,US,LEED-NC v2009,63.0,Gold,3/11/14 0:00,Yes,Corporate: Privately Held,34601.0,148975.0,Office: Government,US Federal Properties Co.,9/13/11 0:00
68145,1000018582,No,One Plantation Apartments,1700 SW 78th Ave,Plantation,FL,33324,US,LEED-NC v2009,43.0,Certified,8/27/13 0:00,Yes,Corporate: Privately Held,359258.0,242095.0,Multi-Family Residential: Apartment,Stiles Corporation,9/14/11 0:00
68158,1000018600,No,SpringHill Suites - Latrobe,115 Arnold Palmer Dr.,Latrobe,PA,15650,US,LEED-NC v2009,44.0,Certified,8/19/13 0:00,Yes,Corporate: Privately Held,70943.0,233455.0,"Lodging: Hotel/Motel/Resort, Select Service",Concord Hospitality Enterprises,9/14/11 0:00
68215,1000018681,No,Stacy and Witbeck,2800 Harbor Bay Parkway,Alameda,CA,94502,US,LEED-NC v2009,74.0,Gold,3/6/13 0:00,Yes,Corporate: Privately Held,19723.0,76308.0,Office: Administrative/Professional,"Stacy And Witbeck, Inc.",9/16/11 0:00
68230,1000018718,No,Greenway Medical Technologies,100 Greenway Boulevard,Carrollton,GA,30117,US,LEED-NC v2009,60.0,Gold,9/26/13 0:00,Yes,Corporate: Privately Held,67127.0,322344.0,Office: Administrative/Professional,"Greenway Medical Technologies, Inc.",9/19/11 0:00
68237,1000018726,No,NOW Foods,575 Vista Blvd.,Sparks,NV,89434,US,LEED-NC v2009,55.0,Silver,11/5/12 0:00,Yes,Corporate: Privately Held,187331.0,333670.0,Warehouse and Distribution Center: Refrigerated,NOW FOODS Inc.,9/19/11 0:00
68243,1000018734,No,The Alexander Hotel,E. South St. & E. Delaware St.,Indianapolis,IN,46225,US,LEED-NC v2009,50.0,Silver,4/23/14 0:00,Yes,Corporate: Privately Held,161266.0,64843.0,"Lodging: Hotel/Motel/Resort, Full Service",Buckingham Companies,9/20/11 0:00
68271,1000018765,No,Skilled Nursing Facility,1752 Park Ave,New York,NY,10035,US,LEED-NC v2009,55.0,,,No,Corporate: Privately Held,128000.0,41000.0,Health Care: Inpatient,Coler Goldwater Speciality Hospital & N,9/20/11 0:00
68292,1000018791,No,1915 Second Avenue,1915 Second Avenue,Seattle,WA,98101,US,LEED-NC v2009,45.0,Certified,7/28/14 0:00,Yes,Corporate: Privately Held,245709.0,14860.0,Multi-Family Residential: Apartment,Goodman Real Estate,9/21/11 0:00
68394,1000018920,No,American Tire Distributors,102 Perimeter West Drive,Charlotte,NC,28214,US,LEED-NC v2009,51.0,Silver,7/29/13 0:00,Yes,Corporate: Privately Held,156000.0,925650.0,"Warehouse and Distribution Center: Nonrefrigerated, Distribu",Liberty Property Trust,9/27/11 0:00
68438,1000018973,No,Wyalusing Hotel Annex,28 Taylor Avenue,Wyalusing,PA,18853,US,LEED-NC v2009,43.0,Certified,10/25/12 0:00,Yes,Corporate: Privately Held,18255.0,30221.0,"Lodging: Hotel/Motel/Resort, Limited Service",Weston Wyalusing LLC,9/28/11 0:00
68440,1000018977,No,Commons Office Building Expansion,301 Jackson Street,Columbus,IN,47201,US,LEED-NC v2009,53.0,Silver,7/15/13 0:00,Yes,Corporate: Privately Held,124260.0,33026.0,Office: Mixed-Use,"Commons Office Partner, LLC",9/28/11 0:00
68472,1000019017,No,LA Marriott,901 W. Olympic Blvd,Los Angeles,CA,90015,US,LEED-NC v2009,52.0,,,No,Corporate: Privately Held,340353.0,36378.0,"Lodging: Hotel/Motel/Resort, Full Service",SODO Builders LA,9/29/11 0:00
68591,1000019153,No,Hyatt Place at Pineapple Grove,104 NE 2nd Avenue,Delray Beach,FL,33444,US,LEED-NC v2009,56.0,Silver,12/6/12 0:00,Yes,Corporate: Privately Held,111911.0,66180.0,"Lodging: Hotel/Motel/Resort, Select Service",The Kolter Group,10/5/11 0:00
68622,1000019192,No,Medline Rogers Minnesota,13115 Brockton Lane N.,Rogers,MN,55374,US,LEED-NC v2009,42.0,Certified,6/3/13 0:00,Yes,Corporate: Privately Held,300000.0,915482.0,"Warehouse and Distribution Center: Nonrefrigerated, Distribu","Medline Industries, Inc.",10/7/11 0:00
68669,1000019255,No,1717 Ridge Apartments,1717 Ridge Avenue,Evanston,IL,60204,US,LEED-NC v2009,50.0,Silver,9/12/13 0:00,Yes,Corporate: Privately Held,188048.0,58676.0,Multi-Family Residential: Apartment,Evanston Venture Partners LLC,10/10/11 0:00
68685,1000019274,No,Sheetz Center for Shwellness,350 Sheetz Way,Claysburg,PA,16625,US,LEED-NC v2009,62.0,Gold,3/25/14 0:00,Yes,Corporate: Privately Held,10744.0,129665.0,"Health Care: Outpatient, Office (Diagnostic)",Sheetz Incorporated,10/11/11 0:00
68757,1000019378,No,500 Fannin - Fretz Construction,500 Fannin,Houston,TX,77002,US,LEED-NC v2009,62.0,Gold,4/30/13 0:00,Yes,Corporate: Privately Held,24100.0,6451.0,Office: Administrative/Professional,Fretz Construction,10/13/11 0:00
68805,1000019454,No,CHP Tracy Field Area Office 266,1200 Pescadero Avenue,Tracy,CA,95304,US,LEED-NC v2009,43.0,,,No,Corporate: Privately Held,18363.0,194082.0,Office: Government,Chris Cammack Company,10/17/11 0:00
68808,1000019457,No,Mars - Pet Feeding Center,Highway 31,Thompson's Station,TN,37179,US,LEED-NC v2009,60.0,Gold,7/14/14 0:00,Yes,Corporate: Privately Held,28586.0,442786.0,Office: Other Office,Mars Petcare,10/17/11 0:00
68809,1000019458,No,Mars - Quality and Innovation Center,Highway 31,Thompson's Station,TN,37179,US,LEED-NC v2009,61.0,Gold,7/14/14 0:00,Yes,Corporate: Privately Held,39845.0,140306.0,Office: Other Office,Mars Petcare,10/17/11 0:00
68810,1000019459,No,Mars - Product Development Center,Highway 31,Thompson's Station,TN,37179,US,LEED-NC v2009,61.0,Gold,7/14/14 0:00,Yes,Corporate: Privately Held,56527.0,206176.0,Office: Other Office,Mars Petcare,10/17/11 0:00
68811,1000019460,No,Mars - Learning Center,Highway 31,Thompson's Station,TN,37179,US,LEED-NC v2009,60.0,Gold,7/14/14 0:00,Yes,Corporate: Privately Held,10172.0,37422.0,Office: Other Office,Mars Petcare,10/17/11 0:00
68832,1000019486,No,Laguna Springs CDC Building D,8280 Longleaf Drive,Elk Grove,CA,95758,US,LEED-NC v2009,75.0,Gold,6/18/13 0:00,Yes,Corporate: Privately Held,105111.0,584677.0,Office: Government,Pappas Laguna Springs Corp Ctr,10/18/11 0:00
68833,1000019487,No,Laguna Springs CDC Building C,8260 Longleaf Drive,Elk Grove,CA,95758,US,LEED-NC v2009,75.0,Gold,9/6/13 0:00,Yes,Corporate: Privately Held,105511.0,584677.0,Office: Government,Pappas Laguna Springs Corp Ctr,10/18/11 0:00
68857,1000019519,No,VA Outpatient Clinic Oakwood,4175 Tanners Creek Drive,Oakwood,GA,30542,US,LEED-NC v2009,54.0,Silver,11/4/13 0:00,Yes,Corporate: Privately Held,23887.0,136691.0,Office: Medical (Non-Diagnostic),"Oakwood VA, LLC",10/19/11 0:00
68959,1000019647,No,Lincoln Harbor Residential Building A,TBD,Weehawken,NJ,7086,US,LEED-NC v2009,53.0,Silver,11/4/14 0:00,Yes,Corporate: Privately Held,214331.0,137145.0,Multi-Family Residential: Apartment,"Elmajo Urban Renewal Associates, LLC",10/25/11 0:00
68962,1000019651,No,450 K Street,450 K Street NW,Washington,DC,20001,US,LEED-NC v2009,53.0,,,No,Corporate: Privately Held,209421.0,21147.0,Multi-Family Residential: Apartment,"Kettler, Inc.",10/25/11 0:00
69047,1000019748,No,West Broadway Branch,25th & West Broadway,Council Bluffs,IA,51501,US,LEED-NC v2009,55.0,Silver,1/29/13 0:00,Yes,Corporate: Privately Held,4900.0,36045.0,Retail: Bank Branch,First National,10/28/11 0:00
69187,1000019960,No,Archer Hotel 45 West 38th Street,45 West 38th St.,New York,NY,10018,US,LEED-NC v2009,55.0,,,No,Corporate: Privately Held,77200.0,6024.0,"Lodging: Hotel/Motel/Resort, Select Service","Manhattan LW Hotel Associates, LP",11/4/11 0:00
69216,1000020007,No,The Broadway  a Doubltree by Hilton,1111 East Broadway,Columbia,MO,65201,US,LEED-NC v2009,41.0,Certified,12/11/14 0:00,Yes,Corporate: Privately Held,92647.0,23654.0,"Lodging: Hotel/Motel/Resort, Full Service","LLW Architects, Inc.",11/7/11 0:00
69265,1000020080,No,Aria Health-Frankford Campus ED,4900 Frankford Avenue,Philadelphia,PA,19124,US,LEED-NC v2009,51.0,Silver,8/19/13 0:00,Yes,Corporate: Privately Held,18424.0,48428.0,Health Care: Inpatient,Stantec,11/10/11 0:00
69302,1000020123,No,Stonefield Hyatt Place,Stonefield,Charlottesville,VA,22901,US,LEED-NC v2009,41.0,Certified,3/20/14 0:00,Yes,Corporate: Privately Held,85286.0,111068.0,"Lodging: Hotel/Motel/Resort, Select Service","Macfarlane Partners, LLC",11/11/11 0:00
69324,1000020151,No,Knorr Brake Westminster,1 Arthur Peck Drive,Westminster,MD,21157,US,LEED-NC v2009,62.0,Gold,3/7/14 0:00,Yes,Corporate: Privately Held,241224.0,1045440.0,"Warehouse and Distribution Center: Nonrefrigerated, Distribu",Knorr Brake Corporation,11/14/11 0:00
69337,1000020166,No,55 9th Street Residential,55 9th Street,San Francisco,CA,94103,US,LEED-NC v2009,52.0,,,No,Corporate: Privately Held,302423.0,35681.0,Multi-Family Residential: Apartment,AvalonBay,11/14/11 0:00
69372,1000020208,No,Waterside Place,505 Congress Street,Boston,MA,2210,US,LEED-NC v2009,45.0,,,No,Corporate: Privately Held,327170.0,51158.0,Multi-Family Residential: Apartment,C3,11/16/11 0:00
69399,1000020242,No,Student Dorms at Fontaine Building,13 West 11th St,Columbus,GA,31901,US,LEED-NC v2009,62.0,Gold,9/7/12 0:00,Yes,Corporate: Privately Held,20370.0,7550.0,Lodging: Dormitory,W.C. Bradley Co. Real Estate,11/17/11 0:00
69419,1000020272,No,MOPC II,State Road PR-2 Km.149.9,Mayaguez,PR,680,US,LEED-NC v2009,81.0,Platinum,5/21/14 0:00,Yes,Corporate: Privately Held,133825.0,505159.0,Health Care: Clinic/Other Outpatient,Lluch Holding,11/18/11 0:00
69536,1000020429,No,Resolute Health Hospital,555 Creekside Crossing,New Braunfels,TX,78130,US,LEED-NC v2009,51.0,Silver,11/3/14 0:00,Yes,Corporate: Privately Held,364615.0,824361.0,Health Care: Inpatient,Central Texas Corridor Hospital Company,11/28/11 0:00
69635,1000020560,No,SAS Building Q,801 SAS Campus Drive,Cary,NC,27513,US,LEED-NC v2009,64.0,Gold,12/2/14 0:00,Yes,Corporate: Privately Held,220004.0,1341985.0,Office: Administrative/Professional,SAS,12/2/11 0:00
69649,1000020577,No,Laredo Outpatient VA Clinic,Pappas And Foster,Laredo,TX,78041,US,LEED-NC v2009,52.0,Silver,11/3/14 0:00,Yes,Corporate: Privately Held,23310.0,189352.0,Health Care: Clinic/Other Outpatient,"US Federal Properties, Co. LLC",12/2/11 0:00
69651,1000020582,No,Dept of Parks and Rec Bays G H I  J100,"4840, 4920, 4930, 4940 Lang Ave",McClellan,CA,95652,US,LEED-NC v2009,55.0,Silver,8/27/13 0:00,Yes,Corporate: Privately Held,260702.0,468973.0,Warehouse and Distribution Center: Warehouse,McClellan Park,12/2/11 0:00
69719,1000020661,No,Playa Vista Community Center,10000 Runway Road,Playa Vista,CA,90094,US,LEED-NC v2009,57.0,,,No,Corporate: Privately Held,25924.0,60519.0,Public Assembly: Other Assembly,Playa Capital Co.,12/6/11 0:00
69762,1000020711,No,Subaru New England Corporate Headquarter,111 Morse Street,Norwood,MA,2062,US,LEED-NC v2009,59.0,,,No,Corporate: Privately Held,160143.0,388299.0,Office: Administrative/Professional,Subaru Of New England,12/8/11 0:00
69774,1000020726,No,Miracle Toyota,37048 Highway 27,Haines City,FL,33844,US,LEED-NC v2009,42.0,Certified,5/7/15 0:00,Yes,Corporate: Privately Held,49432.0,573899.0,Retail: Vehicle Dealership,Dennis L. Murphy LP No.2,12/8/11 0:00
69802,1000020761,No,Hall Winery Fermentation and Office Bldg,401 St. Helena Highway South,St Helena,CA,94574,US,LEED-NC v2009,65.0,Gold,7/15/14 0:00,Yes,Corporate: Privately Held,41257.0,246380.0,Industrial Manufacturing,"Hall Wines, LLC",12/9/11 0:00
69822,1000020782,No,Rosetta WCHQ,East Airport Commerce Park,San Luis Obispo,CA,93401,US,LEED-NC v2009,41.0,Certified,3/11/14 0:00,Yes,Corporate: Privately Held,48062.0,233491.0,Office: Administrative/Professional,Rosetta WCHQ,12/11/11 0:00
69839,1000020806,No,The Hub on Campus,323 East Veterans Way,Tempe,AZ,85281,US,LEED-NC v2009,42.0,Certified,2/7/14 0:00,Yes,Corporate: Privately Held,415615.0,70386.0,Multi-Family Residential: Apartment,Core Campus Tempe I LLC,12/12/11 0:00
69891,1000020869,No,Plumrose Processing Plant,3210 21st Avenue,Council Bluffs,IA,51501,US,LEED-NC v2009,53.0,Silver,6/20/13 0:00,Yes,Corporate: Privately Held,121000.0,681690.0,Industrial Manufacturing,Plumrose USA,12/13/11 0:00
69894,1000020872,No,Embassy Suites Springfield,8100 LOISDALE ROAD,Springfield,VA,22150,US,LEED-NC v2009,40.0,Certified,4/7/14 0:00,Yes,Corporate: Privately Held,187428.0,197683.0,"Lodging: Hotel/Motel/Resort, Full Service","FB Property, LLC",12/13/11 0:00
69918,1000020910,No,GSA DOI Billings Office Building,2021 4th Avenue North,Billings,MT,59101,US,LEED-NC v2009,61.0,Gold,10/17/14 0:00,Yes,Corporate: Privately Held,121793.0,103928.0,Office: Government,The Boyer Company,12/14/11 0:00
69934,1000020928,No,The Summit on College,1721 Choice Center Drive,Fort Collins,CO,80525,US,LEED-NC v2009,42.0,Certified,5/26/15 0:00,Yes,Corporate: Privately Held,273586.0,351489.0,Multi-Family Residential: Apartment,"Capstone Development Partners, LLC",12/15/11 0:00
69942,1000020946,No,VA Outpatient Clinic,951 Grove Road,Greenville,SC,29605,US,LEED-NC v2009,60.0,Gold,10/18/13 0:00,Yes,Corporate: Privately Held,78117.0,421661.0,Health Care: Clinic/Other Outpatient,"Grove Clinic, LLC",12/15/11 0:00
69963,1000020979,No,Spodak Dental Group,3911 West Atlantic Avenue,Delray Beach,FL,33445,US,LEED-NC v2009,60.0,Gold,4/9/14 0:00,Yes,Corporate: Privately Held,13167.0,91045.0,Health Care: Clinic/Other Outpatient,Spodak Dental Group,12/16/11 0:00
70070,1000021122,No,Thelmas by the Sea,501 Pine Ave,Anna Maria,FL,34216,US,LEED-NC v2009,82.0,Platinum,9/30/13 0:00,Yes,Corporate: Privately Held,2805.0,29930.0,Office: Mixed-Use,Pineapplefish Development,12/22/11 0:00
70071,1000021123,No,Historic Green Village - Phase 2,507 Pine Ave,Anna Maria,FL,34216,US,LEED-NC v2009,81.0,Platinum,2/14/14 0:00,Yes,Corporate: Privately Held,4016.0,29930.0,Office: Mixed-Use,Pineapplefish Development,12/22/11 0:00
70147,1000021223,No,Tulsa Cancer Institute,NW Corner Of 51st Street And 129th E Avenue,Tulsa,OK,74134,US,LEED-NC v2009,44.0,Certified,8/7/14 0:00,Yes,Corporate: Privately Held,85600.0,455062.0,Health Care: Clinic/Other Outpatient,Cancer Care Associates,12/29/11 0:00
70148,1000021224,No,Pharmavite ECMF,4701 Northpark Dr,Opelika,AL,36801,US,LEED-NC v2009,41.0,Certified,10/31/13 0:00,Yes,Corporate: Privately Held,338000.0,1132880.0,Industrial Manufacturing,Pharmavite,12/29/11 0:00
70392,1000021524,No,438 Main Street,438 Main Street,Baton Rouge,LA,70801,US,LEED-NC v2009,43.0,Certified,7/18/14 0:00,Yes,Corporate: Privately Held,22292.0,6720.0,Multi-Family Residential: Apartment,"438 Main Street, LLC",1/10/12 0:00
70439,1000021602,No,Sewell Cadillac Houston New Car,12221 Katy Freeway,Houston,TX,77079,US,LEED-NC v2009,53.0,Silver,5/2/14 0:00,Yes,Corporate: Privately Held,46528.0,193974.0,Retail: Vehicle Dealership,Sewell Automotive Companies,1/12/12 0:00
70480,1000021664,No,CHM Pediatric Specialty Center,3950 Beaubien,Detroit,MI,48201,US,LEED-NC v2009,44.0,Certified,1/30/13 0:00,Yes,Corporate: Privately Held,105000.0,262758.0,Health Care: Clinic/Other Outpatient,Detroit Medical Center,1/16/12 0:00
70487,1000021672,No,Hilton Garden Inn West End,2201 M Street NW,Washington DC,DC,20037,US,LEED-NC v2009,52.0,Silver,3/13/15 0:00,Yes,Corporate: Privately Held,146283.0,20738.0,"Lodging: Hotel/Motel/Resort, Full Service",OTO Development,1/17/12 0:00
70489,1000021674,No,Watermark Two,250 Kendall Street,Cambridge,MA,2142,US,LEED-NC v2009,54.0,Silver,10/30/13 0:00,Yes,Corporate: Privately Held,147644.0,20675.0,Multi-Family Residential: Apartment,"Principal Real Estate Investors, LLC",1/17/12 0:00
70561,1000021773,No,Doctors Park II Remodel,2650 NE Courtney Drive,Bend,OR,97701,US,LEED-NC v2009,61.0,Gold,2/12/13 0:00,Yes,Corporate: Privately Held,26088.0,92153.0,Health Care: Clinic/Other Outpatient,Courtney LLC,1/20/12 0:00
70587,1000021816,No,Royal Farms 073,1401 S. Division Street,Salisbury,MD,21840,US,LEED-NC v2009,45.0,Certified,10/4/12 0:00,Yes,Corporate: Privately Held,5125.0,45131.0,Retail: Convenience Store,Royal Farms,1/23/12 0:00
70862,1000022185,No,Starling Club at FishHawk Amenity Center,15808 Starling Crossing Drive,Lithia,FL,33547,US,LEED-NC v2009,61.0,Gold,7/8/13 0:00,Yes,Corporate: Privately Held,7994.0,84646.0,Public Assembly: Recreation,Newland Communities,2/5/12 0:00
70891,1000022222,No,Victory Toyota,5 Heitzinger Plaza,Seaside,CA,93955,US,LEED-NC v2009,50.0,Silver,6/30/14 0:00,Yes,Corporate: Privately Held,20082.0,108955.0,Retail: Vehicle Dealership,Victory Toyota,2/7/12 0:00
70959,1000022319,No,Pembroke Pines Clubhouse,"520-698 SW 101st Avenue, Pembroke Pines, FL",Pembroke Pines,FL,33025,US,LEED-NC v2009,62.0,Gold,10/9/13 0:00,Yes,Corporate: Privately Held,7842.0,46181.0,Public Assembly: Other Assembly,"Mill Creek Residential Trust, LLC",2/9/12 0:00
71020,1000022392,No,Aloft Hotel - Orlando,500 South Orange Avenue,Orlando,FL,32801,US,LEED-NC v2009,69.0,Gold,5/29/15 0:00,Yes,Corporate: Privately Held,105251.0,34740.0,"Lodging: Hotel/Motel/Resort, Select Service","GDC Orlando Hotel Owner, LLC",2/14/12 0:00
71069,1000022450,No,One Water Wall,Hidalgo & McCue,Houston,TX,77056,US,LEED-NC v2009,42.0,,,No,Corporate: Privately Held,408381.0,131638.0,Multi-Family Residential: Apartment,Hines,2/15/12 0:00
71088,1000022473,No,Lot 24,2404 Railroad Street,Pittsburgh,PA,15222,US,LEED-NC v2009,41.0,Certified,12/11/14 0:00,Yes,Corporate: Privately Held,89558.0,31754.0,Multi-Family Residential: Apartment,"McCaffery Interests, Inc.",2/16/12 0:00
71183,1000022596,No,Fenwick Station,Spring Street And 2nd Avenue,Silver Spring,MD,20910,US,LEED-NC v2009,60.0,Gold,3/13/15 0:00,Yes,Corporate: Privately Held,290544.0,117710.0,Multi-Family Residential: Apartment,Insight Property Group,2/22/12 0:00
71357,1000022814,No,Central Station of Evanston,1700-1722 Central Street,Evanston,IL,60201,US,LEED-NC v2009,60.0,Gold,5/21/14 0:00,Yes,Corporate: Privately Held,123700.0,43870.0,Multi-Family Residential: Apartment,M & R Development LLC,3/2/12 0:00
71374,1000022847,No,Brennan Office Building,816 Bainbridge Street,La Crosse,WI,54603,US,LEED-NC v2009,57.0,Silver,11/5/13 0:00,Yes,Corporate: Privately Held,28485.0,76910.0,Office: Administrative/Professional,JF Brennan,3/5/12 0:00
71436,1000022927,No,Anadarko Woodloch,Lake Robbins Drive,The Woodlands,TX,77380,US,LEED-NC v2009,57.0,Silver,10/27/14 0:00,Yes,Corporate: Privately Held,720279.0,122918.0,Office: Administrative/Professional,Anadarko Petroleum Corp,3/7/12 0:00
71472,1000022968,No,Time Warner Cable Building,2321 Scientific Park Drive,Wilmington,NC,28405,US,LEED-NC v2009,50.0,Silver,10/29/14 0:00,Yes,Corporate: Privately Held,45000.0,266315.0,Office: Other Office,Williams Realty And Building,3/8/12 0:00
71492,1000022992,No,Royal Farms 161,1545 Pulaski Highway,Bear,DE,19701,US,LEED-NC v2009,44.0,Certified,2/28/14 0:00,Yes,Corporate: Privately Held,5125.0,99578.0,Retail: Convenience Store,Royal Farms,3/9/12 0:00
71494,1000022994,No,Royal Farms 162,1170 Loucks Road,York,PA,17404,US,LEED-NC v2009,43.0,Certified,2/7/13 0:00,Yes,Corporate: Privately Held,5125.0,66211.0,Retail: Convenience Store,Royal Farms,3/9/12 0:00
71543,1000023055,No,Dunn Building Company - New Headquarters,3901 Messer Airport Highway,Birmingham,AL,35222,US,LEED-NC v2009,51.0,Silver,10/27/14 0:00,Yes,Corporate: Privately Held,6600.0,17000.0,Office: Administrative/Professional,Dunn Building Company,3/13/12 0:00
71574,1000023101,No,Agro-Culture Liquid Fertilizer,3055 West M-21,Saint Johns,MI,48879,US,LEED-NC v2009,60.0,Gold,3/17/14 0:00,Yes,Corporate: Privately Held,59740.0,572445.0,Office: Mixed-Use,Agro-Culture Liquid Fertilizer,3/15/12 0:00
71697,1000023250,No,LaFontaine Volkswagen,2200 S. Telegraph Rd.,Dearborn,MI,48124,US,LEED-NC v2009,55.0,Silver,5/24/13 0:00,Yes,Corporate: Privately Held,15912.0,102120.0,Retail: Vehicle Dealership,LML Dearborn LLC,3/20/12 0:00
71703,1000023257,No,HUB Group Chicago,2000 Clearwater Drive,Oak Brook,IL,60523,US,LEED-NC v2009,60.0,Gold,4/28/14 0:00,Yes,Corporate: Privately Held,141239.0,742940.0,Office: Administrative/Professional,HUB Group,3/21/12 0:00
71712,1000023267,No,111 West Wacker Drive,111 West Wacker Drive,Chicago,IL,60601,US,LEED-NC v2009,61.0,Gold,4/10/15 0:00,Yes,Corporate: Privately Held,741805.0,24086.0,Multi-Family Residential: Apartment,"Hart 111 W Wacker, LLC",3/21/12 0:00
71723,1000023283,No,Eagle Phenix Mill 2,1291 Front Ave,Columbus,GA,31901,US,LEED-NC v2009,44.0,,,No,Corporate: Privately Held,58160.0,85466.0,Multi-Family Residential: Apartment,WC Bradley,3/21/12 0:00
71956,1000023573,No,The Embarcadero Commerce Center,7802 Est Bob Bullock Loop,Laredo,TX,78045,US,LEED-NC v2009,48.0,Certified,1/15/13 0:00,Yes,Corporate: Privately Held,252915.0,830486.0,"Warehouse and Distribution Center: Nonrefrigerated, Distribu",Farias Development,4/3/12 0:00
71967,1000023589,No,Volvo Office Expansion,312 Volvo Way,Shippensburg,PA,17257,US,LEED-NC v2009,55.0,Silver,12/19/13 0:00,Yes,Corporate: Privately Held,35541.0,296981.0,Office: Mixed-Use,Volvo Construction Equipment,4/4/12 0:00
72056,1000023697,No,The Oronoco,601 N. Fairfax Street,Alexandria,VA,22314,US,LEED-NC v2009,40.0,Certified,5/5/15 0:00,Yes,Corporate: Privately Held,176162.0,87120.0,Multi-Family Residential: Condominium,Architectural Energy Corporation,4/6/12 0:00
72112,1000023768,No,Veolia Emerald Park - MPF,W124 S10629 124th Street,Muskego,WI,53150,US,LEED-NC v2009,47.0,Certified,4/24/14 0:00,Yes,Corporate: Privately Held,4682.0,76976.0,Industrial Manufacturing,Advanced Disposal,4/10/12 0:00
72260,1000023957,No,Royal Farms 005,901 Snow Hill Rd,Salisbury,MD,21804,US,LEED-NC v2009,41.0,Certified,8/27/13 0:00,Yes,Corporate: Privately Held,4143.0,54886.0,Retail: Convenience Store,Royal Farms,4/17/12 0:00
72262,1000023959,No,Royal Farms 023,6411 Ft. Smallwood,Baltimore,MD,21226,US,LEED-NC v2009,47.0,Certified,11/19/13 0:00,Yes,Corporate: Privately Held,5125.0,103482.0,Retail: Convenience Store,Royal Farms,4/17/12 0:00
72348,1000024057,No,Bell Helicopter-Textron Headquarters,600 E. Hurst Blvd.,Fort Worth,TX,76053,US,LEED-NC v2009,52.0,Silver,9/9/14 0:00,Yes,Corporate: Privately Held,227941.0,159613.0,Office: Administrative/Professional,Bell Helicopter Textron,4/20/12 0:00
72405,1000024134,No,Nutrilite Building 9,5600 Beach Blvd,Buena Park,CA,90621,US,LEED-NC v2009,52.0,Silver,10/16/14 0:00,Yes,Corporate: Privately Held,59705.0,29132.0,Laboratory,Nutrilite,4/24/12 0:00
72431,1000024165,No,Pagliacci Pizza,3015 East Madison Street,Seattle,WA,98112,US,LEED-NC v2009,63.0,Gold,11/7/13 0:00,Yes,Corporate: Privately Held,1942.0,4798.0,Retail: Restaurant/Cafeteria,Pagliacci Pizza,4/25/12 0:00
72448,1000024183,No,Renaissance Hotel Addition,2222 Stemmons Frwy,Dallas,TX,75207,US,LEED-NC v2009,57.0,Silver,11/7/14 0:00,Yes,Corporate: Privately Held,47287.0,70584.0,Public Assembly: Convention Center,"Deep Elem Real Estate, LLC",4/26/12 0:00
72449,1000024184,No,Jones Chicago,220 W Illinois,Chicago,IL,60654,US,LEED-NC v2009,63.0,,,No,Corporate: Privately Held,211025.0,15907.0,Multi-Family Residential: Apartment,Gerding Edlen,4/26/12 0:00
72482,1000024226,No,Swinerton Builders San Diego TI,16798 W. Bernardo Dr.,San Diego,CA,92127,US,LEED-NC v2009,85.0,Platinum,8/11/14 0:00,Yes,Corporate: Privately Held,24505.0,232610.0,Office: Administrative/Professional,Swinerton Builders,4/27/12 0:00
72571,1000024336,No,Broken Sound Club Fitness and Spa,2401 Willow Springs Drive,Boca Raton,FL,33496,US,LEED-NC v2009,43.0,Certified,3/8/15 0:00,Yes,Corporate: Privately Held,32285.0,160950.0,Public Assembly: Recreation,Broken Sound Club,5/2/12 0:00
72707,1000024506,No,Kawailoa Wind Project,Ashley Road,Haleiwa,HI,96712,US,LEED-NC v2009,50.0,Silver,12/11/13 0:00,Yes,Corporate: Privately Held,8417.0,69964.0,Warehouse and Distribution Center: Warehouse,First Wind,5/8/12 0:00
72718,1000024518,No,UPRR Yuma Yard Office,2441 East Gila Ridge Road,Yuma,AZ,85365,US,LEED-NC v2009,40.0,Certified,5/18/15 0:00,Yes,Corporate: Privately Held,9680.0,171010.0,Office: Other Office,Union Pacific Rail Road,5/9/12 0:00
72735,1000024536,No,Petworth Residences,900 Randolph Street NW,Washington,DC,20011,US,LEED-NC v2009,52.0,Silver,11/4/14 0:00,Yes,Corporate: Privately Held,305900.0,68119.0,Multi-Family Residential: Apartment,Duball LLC,5/9/12 0:00
72755,1000024558,No,Vance Thompson Vision Center,3101 W 57th Street,Sioux Falls,SD,57108,US,LEED-NC v2009,41.0,Certified,4/15/15 0:00,Yes,Corporate: Privately Held,33285.0,167815.0,Healthcare: Clinic/Other Outpatient,Vance Thompson Vision,5/10/12 0:00
72794,1000024605,No,John I Haas Technical Center,1214 N 16th Ave,Yakima,WA,98902,US,LEED-NC v2009,65.0,Gold,6/14/13 0:00,Yes,Corporate: Privately Held,23617.0,104162.0,Office: Other Office,"John I. Haas, Inc.",5/11/12 0:00
72817,1000024634,No,Partner Engineering Offices,2154 Torrance Blvd,Torrance,CA,90501,US,LEED-NC v2009,40.0,Certified,9/3/13 0:00,Yes,Corporate: Privately Held,17350.0,18017.0,Office: Administrative/Professional,Partner Engineering & Science,5/14/12 0:00
72875,1000024710,No,The Center on Main,320 East Main Street,Chattanooga,TN,37408,US,LEED-NC v2009,51.0,Silver,5/22/15 0:00,Yes,Corporate: Privately Held,19942.0,60562.0,Office: Medical (Non-Diagnostic),Jump Development,5/16/12 0:00
72979,1000024841,No,Kaiser Permanente South,10240 Park Meadows Drive,Lone Tree,CO,80124,US,LEED-NC v2009,52.0,Silver,5/27/14 0:00,Yes,Corporate: Privately Held,275376.0,868429.0,Health Care: Clinic/Other Outpatient,Kaiser Permanente,5/23/12 0:00
72998,1000024863,No,Bindery Redevelopment LLC,43 South Main Street,Concord,NH,3301,US,LEED-NC v2009,43.0,Certified,3/21/14 0:00,Yes,Corporate: Privately Held,69340.0,22925.0,Office: Mixed-Use,"Bindery Redevelopment, LLC",5/24/12 0:00
73162,1000025076,No,Royal Farms 040,7843 Telegraph Road,Severn,MD,21144,US,LEED-NC v2009,40.0,Certified,1/28/14 0:00,Yes,Corporate: Privately Held,5125.0,109714.0,Retail: Convenience Store,Royal Farms,6/1/12 0:00
73177,1000025108,No,Vivint,4949 North 300 West,Provo,UT,84604,US,LEED-NC v2009,50.0,Silver,5/12/15 0:00,Yes,Corporate: Privately Held,94213.0,125588.0,Office: Administrative/Professional,Gardner Company,6/1/12 0:00
73210,1000025154,No,Star Tobacco Factory,16 South Market Street,Petersburg,VA,23803,US,LEED-NC v2009,41.0,Certified,8/28/14 0:00,Yes,Corporate: Privately Held,60750.0,91305.0,Multi-Family Residential: Apartment,"Star Lofts, LLC",6/4/12 0:00
73275,1000025238,No,Newport Computers,Airport Drive,Rochester,NH,3867,US,LEED-NC v2009,54.0,Silver,12/20/13 0:00,Yes,Corporate: Privately Held,30340.0,267579.0,Industrial Manufacturing,"Sakuntala, LLC",6/6/12 0:00
73344,1000025326,No,125 Dunnell Road,125 Dunnell Road,Maplewood,NJ,7040,US,LEED-NC v2009,40.0,Certified,11/21/14 0:00,Yes,Corporate: Privately Held,48348.0,37501.0,Multi-Family Residential: Apartment,JG Petrucci,6/12/12 0:00
73360,1000025347,No,Parcel M,Grand Avenue Parcel M,Los Angeles,CA,90012,US,LEED-NC v2009,61.0,Gold,12/5/14 0:00,Yes,Corporate: Privately Held,267040.0,39397.0,Multi-Family Residential: Apartment,HKS,6/12/12 0:00
73425,1000025423,No,Glanbia Corporate Office Building,4th Ave South,Twin Falls,ID,83301,US,LEED-NC v2009,49.0,Certified,3/7/14 0:00,Yes,Corporate: Privately Held,40060.0,24271.0,Office: Administrative/Professional,"Glanbia Foods, Inc.",6/15/12 0:00
73477,1000025484,No,Pine Street Flats,1055 Pine Street,Nashville,TN,37203,US,LEED-NC v2009,50.0,Silver,1/28/14 0:00,Yes,Corporate: Privately Held,292726.0,161943.0,Multi-Family Residential: Apartment,MarketStreet Enterprises,6/19/12 0:00
73507,1000025520,No,2nd and Bell,2304 2nd Ave,Seattle,WA,98121,US,LEED-NC v2009,42.0,Certified,1/15/14 0:00,Yes,Corporate: Privately Held,114126.0,12720.0,Multi-Family Residential: Apartment,HB Northwest,6/20/12 0:00
73509,1000025522,No,4th and Denny,2720 4th Avenue,Seattle,WA,98121,US,LEED-NC v2009,44.0,Certified,3/10/15 0:00,Yes,Corporate: Privately Held,153984.0,19971.0,Multi-Family Residential: Apartment,Col-Pac,6/20/12 0:00
73525,1000025546,No,Park Place Lexus - Plano,6785 Dallas Parkway,Plano,TX,75024,US,LEED-NC v2009,49.0,Certified,12/2/14 0:00,Yes,Corporate: Privately Held,170000.0,1194179.0,Retail: Vehicle Dealership,Park Place Dealerships,6/21/12 0:00
73541,1000025570,No,Dunning Toyota,3745 Jackson Rd.,Ann Arbor,MI,48103,US,LEED-NC v2009,55.0,Silver,1/13/14 0:00,Yes,Corporate: Privately Held,34152.0,449327.0,Retail: Vehicle Dealership,"ACD Investments, LLC",6/22/12 0:00
73580,1000025619,No,Rockford Construction Downtown Campus,601 First Street NW,Grand Rapids,MI,49504,US,LEED-NC v2009,80.0,Platinum,9/22/14 0:00,Yes,Corporate: Privately Held,58161.0,158686.0,Office: Administrative/Professional,Rockford Construction Company Inc.,6/26/12 0:00
73581,1000025620,No,SW 12th and Alder,SW 12th And Alder,Portland,OR,97205,US,LEED-NC v2009,52.0,Silver,4/25/14 0:00,Yes,Corporate: Privately Held,22358.0,10000.0,Office: Mixed-Use,Downtown Development Group,6/26/12 0:00
73589,1000025628,No,The Union,2750 SW Harrison Boulevard,Corvallis,OR,97330,US,LEED-NC v2009,51.0,Silver,8/1/14 0:00,Yes,Corporate: Privately Held,79086.0,79314.0,Multi-Family Residential: Apartment,Project^,6/26/12 0:00
73689,1000025748,No,Supermax Healthcare Inc,Sequoia Drive,Aurora,IL,60506,US,LEED-NC v2009,66.0,Gold,4/23/14 0:00,Yes,Corporate: Privately Held,90170.0,608364.0,Industrial Manufacturing,Supermax Healthcare Inc,7/3/12 0:00
73695,1000025754,No,21 Euclid Avenue,21 Euclid Avenue,Haddonfield,NJ,8033,US,LEED-NC v2009,53.0,Silver,10/16/14 0:00,Yes,Corporate: Privately Held,7726.0,11360.0,Office: Administrative/Professional,Walters Contracting Co. LLC,7/3/12 0:00
73728,1000025787,No,HCA NASHVILLE DATA CENTER,5900 Crossings Boulevard,Antioch,TN,37013,US,LEED-NC v2009,40.0,Certified,5/12/14 0:00,Yes,Corporate: Privately Held,94484.0,1141645.0,Datacenter,Hospital Corporation Of America,7/3/12 0:00
73752,1000025819,No,Howard Square Apartments,7600 Singer Drive,Jessup,MD,20794,US,LEED-NC v2009,80.0,Platinum,9/3/14 0:00,Yes,Corporate: Privately Held,372130.0,182188.0,,ATAPCO,7/5/12 0:00
73808,1000025896,No,Royal Farms 050,2704 Washington Blvd,Baltimore,MD,21230,US,LEED-NC v2009,41.0,Certified,3/14/14 0:00,Yes,Corporate: Privately Held,4018.0,22509.0,Retail: Convenience Store,Royal Farms,7/10/12 0:00
73809,1000025897,No,Royal Farms 151,293 S. Saulsbury Road,Dover,DE,19904,US,LEED-NC v2009,44.0,Certified,4/10/14 0:00,Yes,Corporate: Privately Held,5785.0,157822.0,Retail: Convenience Store,Royal Farm,7/10/12 0:00
73810,1000025899,No,Crescent Crosstown,9712 Bosque Creek Circle,Tampa,FL,33619,US,LEED-NC v2009,42.0,Certified,4/17/15 0:00,Yes,Corporate: Privately Held,6890.0,65039.0,Multi-Family Residential: Apartment,Crescent Crosstown,7/10/12 0:00
73886,1000025984,No,Cadillac Hotel Addtn Courtyard Marriott,3925 Collins Ave,Miami,FL,33141,US,LEED-NC v2009,44.0,Certified,5/14/14 0:00,Yes,Corporate: Privately Held,58802.0,25096.0,"Lodging: Hotel/Motel/Resort, Full Service",Hersha Hospitality,7/12/12 0:00
73899,1000026000,No,Hub One Logistics,Lot 11,Greencastle,PA,17225,US,LEED-NC v2009,50.0,Silver,1/14/14 0:00,Yes,Corporate: Privately Held,400000.0,988851.0,Warehouse and Distribution Center: Refrigerated,Armada Supply Chain Solutions,7/13/12 0:00
73914,1000026023,No,CEFCU Germantown Hills Member Center,510 Jubilee Lane,Germantown Hills,IL,61548,US,LEED-NC v2009,44.0,Certified,10/7/14 0:00,Yes,Corporate: Privately Held,5361.0,229162.0,Retail: Bank Branch,CEFCU,7/16/12 0:00
73921,1000026031,No,PANCAL,954 Centerville Rd,Newville,PA,17241,US,LEED-NC v2009,41.0,Certified,6/19/13 0:00,Yes,Corporate: Privately Held,1400000.0,5058858.0,Warehouse and Distribution Center: Warehouse,"Panattoni Development Company, Inc.",7/16/12 0:00
73973,1000026099,No,Franklin Electric Headquarters,9255 Coverdale Rd.,Fort Wayne,IN,46809,US,LEED-NC v2009,50.0,Silver,6/20/14 0:00,Yes,Corporate: Privately Held,120000.0,1373875.0,Office: Mixed-Use,"Franklin Electric Co., Inc.",7/19/12 0:00
74006,1000026136,No,Residence Inn Needham,80 B Street,Needham,MA,2492,US,LEED-NC v2009,60.0,Gold,4/24/14 0:00,Yes,Corporate: Privately Held,88638.0,116098.0,"Lodging: Hotel/Motel/Resort, Full Service",SXC Needham Inn LLC,7/20/12 0:00
74040,1000026176,No,Antelope Valley Solar Ranch Op Facility,49881 West 170th Street,Lancaster,CA,93536,US,LEED-NC v2009,56.0,Silver,11/18/13 0:00,Yes,Corporate: Privately Held,4057.0,48676.0,Service: Other Service,"AV Solar Ranch 1, LLC (Exelon)",7/23/12 0:00
74061,1000026203,No,CMTA Lexington Office Building,2429 Members Way,Lexington,KY,40504,US,LEED-NC v2009,81.0,Platinum,4/16/15 0:00,Yes,Corporate: Privately Held,11750.0,42200.0,Office: Administrative/Professional,CMTA Consulting Engineers,7/24/12 0:00
74140,1000026301,No,Bell Lexus North Scottsdale,18055 North Scottsdale Road,Scottsdale,AZ,85255,US,LEED-NC v2009,60.0,Gold,10/30/14 0:00,Yes,Corporate: Privately Held,83278.0,398574.0,Retail: Vehicle Dealership,BCB Group Investments,7/30/12 0:00
74180,1000026350,No,Kansas Leadership Center,325 E Douglas Avenue,Wichita,KS,67202,US,LEED-NC v2009,40.0,,,No,Corporate: Privately Held,33300.0,14975.0,Office: Administrative/Professional,Kansas Health Foundation,8/1/12 0:00
74220,1000026398,No,Regal,1051 Cheyenne Avenue,Grafton,WI,53024,US,LEED-NC v2009,43.0,Certified,3/7/14 0:00,Yes,Corporate: Privately Held,45260.0,244427.0,Office: Administrative/Professional,"Grafton Cheyenne, LLC",8/3/12 0:00
74307,1000026500,No,850 Lake Shore Drive,850 North Lake Shore Drive,Chicago,IL,60611,US,LEED-NC v2009,51.0,Silver,5/29/15 0:00,Yes,Corporate: Privately Held,338101.0,31638.0,Multi-Unit Residence,850 Investors LLC,8/8/12 0:00
74388,1000026594,No,Hendrick Lexus,Merriam Pointe,Merriam,KS,66203,US,LEED-NC v2009,42.0,Certified,3/18/15 0:00,Yes,Corporate: Privately Held,67240.0,364192.0,Retail: Vehicle Dealership,Hendrick Automotive Group,8/13/12 0:00
74452,1000026670,No,RPA Engineering Spring Ridge Building,400 Spring Ridge Drive,Wyomissing,PA,19610,US,LEED-NC v2009,48.0,Certified,3/31/14 0:00,Yes,Corporate: Privately Held,12007.0,87119.0,Office: Administrative/Professional,RPA Associates Inc.,8/16/12 0:00
74532,1000026764,No,Subaru Florence Part Distribution Center,2020 US Route 130,Florence,NJ,8554,US,LEED-NC v2009,54.0,Silver,1/3/14 0:00,Yes,Corporate: Privately Held,526050.0,2945372.0,"Warehouse and Distribution Center: Nonrefrigerated, Distribu","Florence Crossings 1, LLC",8/22/12 0:00
74608,1000026860,No,Lincoln Harbor Residential Building B,TBD,Weehawken,NJ,7086,US,LEED-NC v2009,56.0,Silver,5/13/15 0:00,Yes,Corporate: Privately Held,248685.0,69055.0,Multi-Family Residential: Apartment,"Estuary Urban Renewal Unit B, LLC",8/27/12 0:00
74610,1000026862,No,Old Town Mixed Use,16175 Cleveland Street,Redmond,WA,98052,US,LEED-NC v2009,45.0,Certified,11/25/14 0:00,Yes,Corporate: Privately Held,131940.0,35865.0,Multi-Family Residential: Apartment,TBD+ Architects,8/27/12 0:00
74635,1000026907,No,New City Residential Tower,1457 N Halsted Street,Chicago,IL,60610,US,LEED-NC v2009,41.0,,,No,Corporate: Privately Held,205195.0,307932.0,Multi-Family Residential: Apartment,Structured Development,8/28/12 0:00
74669,1000026964,No,Servicon Warehouse Conversion,3965 Landmark Street,Culver City,CA,90232,US,LEED-NC v2009,81.0,Platinum,9/19/14 0:00,Yes,Corporate: Privately Held,3409.0,30537.0,Office: Administrative/Professional,"Servicon Systems, Inc",8/30/12 0:00
74718,1000027033,No,JF Ahern Co Milwaukee Office Phase 1,3201 W. Canal St.,Milwaukee,WI,53214,US,LEED-NC v2009,59.0,,,No,Corporate: Privately Held,29068.0,168430.0,Office: Administrative/Professional,J F Ahern Co,9/4/12 0:00
74780,1000027107,No,Sonoma-Cutrer Vineyards Bodega II,4401 Slusser Road,Windsor,CA,95942,US,LEED-NC v2009,64.0,Gold,5/11/15 0:00,Yes,Corporate: Privately Held,28902.0,591822.0,Warehouse: General,Sonoma-Cutrer Vineyards,9/6/12 0:00
74810,1000027148,No,Raining Rose,100 30th Street Drive SE,Cedar Rapids,IA,52403,US,LEED-NC v2009,47.0,Certified,1/3/14 0:00,Yes,Corporate: Privately Held,121479.0,342938.0,Office: Administrative/Professional,"Raining Rose, Inc.",9/10/12 0:00
74825,1000027166,No,GetGo 3003 Southside Pittsburgh,East Carson Street And South 33rd Street,Pittsburgh,PA,15203,US,LEED-NC v2009,49.0,Certified,4/10/15 0:00,Yes,Corporate: Privately Held,5266.0,72266.0,Retail: Convenience Store,Giant Eagle - Aetos,9/11/12 0:00
74848,1000027204,No,Mitsubishi Electric Cooling and Heating,1340 Satellite Blvd,Suwanee,GA,30024,US,LEED-NC v2009,47.0,Certified,10/31/13 0:00,Yes,Corporate: Privately Held,559960.0,1418314.0,"Warehouse and Distribution Center: Nonrefrigerated, Distribu","IDI, Industrial Developments Int'l",9/12/12 0:00
74858,1000027218,No,KeyBank - OH - 6985 - Avon Commons,36036 Detroit Road,Avon,OH,44011,US,LEED-NC v2009,47.0,Certified,12/10/13 0:00,Yes,Corporate: Privately Held,3891.0,35006.0,Retail: Bank Branch,KeyBank,9/13/12 0:00
74889,1000027260,No,Design Styles Architecture Office,1708 E. Columbus Dr,Tampa,FL,33605,US,LEED-NC v2009,66.0,Gold,12/24/13 0:00,Yes,Corporate: Privately Held,4896.0,20092.0,Office: Administrative/Professional,Design Styles Architecture,9/14/12 0:00
74901,1000027274,No,KeyBank - OH - 6959 - Rocky River,19234 Detroit Road,Rocky River,OH,44116,US,LEED-NC v2009,50.0,Silver,1/10/14 0:00,Yes,Corporate: Privately Held,4074.0,37811.0,Retail: Bank Branch,KeyCorp,9/14/12 0:00
74930,1000027323,No,Van Meter Inc,2458 State Hwy 22,Muscatine,IA,52761,US,LEED-NC v2009,43.0,,,No,Corporate: Privately Held,19172.0,112316.0,"Warehouse and Distribution Center: Nonrefrigerated, Distribu","Van Meter, Inc.",9/17/12 0:00
74983,1000027388,No,Lake Park Crescent,1060 E 41st Street,Chicago,IL,60653,US,LEED-NC v2009,51.0,Silver,6/12/14 0:00,Yes,Corporate: Privately Held,121924.0,35361.0,Multi-Family Residential: Apartment,The Davis Group,9/19/12 0:00
75067,1000027497,No,Adjustable Forms Inc,1 East Progress Road,Lombard,IL,60148,US,LEED-NC v2009,41.0,,,No,Corporate: Privately Held,20139.0,77734.0,Office: Mixed-Use,DLR Group,9/25/12 0:00
75078,1000027512,No,"Hampton Inn - Lewiston, ME",15 Lincoln Street,Lewiston,ME,4240,US,LEED-NC v2009,60.0,Gold,3/23/15 0:00,Yes,Corporate: Privately Held,51389.0,123960.0,"Lodging: Hotel/Motel/Resort, Limited Service","Parrallax Partners, Inc.",9/26/12 0:00
75139,1000027583,No,Volkswagen SERDC,2560 Buttermilk Way,Lenoir City,TN,37771,US,LEED-NC v2009,53.0,Silver,6/20/13 0:00,Yes,Corporate: Privately Held,527447.0,2378376.0,"Warehouse and Distribution Center: Nonrefrigerated, Distribu",Volkswagen Group Of America,10/1/12 0:00
75178,1000027630,No,Noble Energy Center One,20946 N. Loop Road,Houston,TX,77070,US,LEED-NC v2009,62.0,Gold,9/18/13 0:00,Yes,Corporate: Privately Held,495080.0,253915.0,Office: Other Office,Trammell Crow,10/3/12 0:00
75234,1000027723,No,LSC Design,320 North George Street,York,PA,17401,US,LEED-NC v2009,84.0,Platinum,10/15/14 0:00,Yes,Corporate: Privately Held,43339.0,123362.0,Office: Administrative/Professional,LSC Design,10/8/12 0:00
75384,1000027940,No,Watson Land Company - Building 828,Kimball Avenue & Cypress Avenue,Chino,CA,91708,US,LEED-NC v2009,63.0,Gold,9/2/14 0:00,Yes,Corporate: Privately Held,502505.0,1067969.0,Warehouse and Distribution Center: Warehouse,Watson Land Company,10/17/12 0:00
75385,1000027941,No,Watson Land Company - Building 827,Kimball Avenue & Cypress Avenue,Chino,CA,91708,US,LEED-NC v2009,65.0,Gold,8/29/14 0:00,Yes,Corporate: Privately Held,410700.0,901062.0,Warehouse and Distribution Center: Warehouse,Watson Land Company,10/17/12 0:00
75386,1000027943,No,Watson Land Company - Building 821,Kimball Avenue & Cypress Avenue,Chino,CA,91708,US,LEED-NC v2009,64.0,Gold,9/3/14 0:00,Yes,Corporate: Privately Held,117052.0,265817.0,Warehouse and Distribution Center: Warehouse,Watson Land Company,10/17/12 0:00
75400,1000027958,No,3rd and Cedar,225 Cedar Street,Seattle,WA,98109,US,LEED-NC v2009,43.0,,,No,Corporate: Privately Held,195444.0,18094.0,Multi-Family Residential: Apartment,Wood Partners,10/18/12 0:00
75470,1000028043,No,Royal Farms 181,9620 Belair Road,Nottingham,MD,21236,US,LEED-NC v2009,43.0,Certified,1/14/14 0:00,Yes,Corporate: Privately Held,5125.0,42205.0,Retail: Convenience Store,Royal Farms,10/23/12 0:00
75493,1000028070,No,Advanced Engineering Consultants Office,1405 Dublin Road,Columbus,OH,43215,US,LEED-NC v2009,61.0,Gold,3/13/14 0:00,Yes,Corporate: Privately Held,13000.0,52315.0,Office: Other Office,Advanced Engineering Consultants,10/24/12 0:00
75560,1000028151,No,Fifth Third Bank - Plymouth,42370 Ann Arbor Road,Plymouth,MI,48170,US,LEED-NC v2009,43.0,Certified,6/20/14 0:00,Yes,Corporate: Privately Held,3311.0,37897.0,Retail: Bank Branch,Fifth Third Bank,10/26/12 0:00
75715,1000028368,No,Pacific Pointe South - Bldg 5,3788 Conant Street,Long Beach,CA,90806,US,LEED-NC v2009,52.0,Silver,12/9/13 0:00,Yes,Corporate: Privately Held,131912.0,321198.0,Industrial Manufacturing,Sares Regis Group,11/6/12 0:00
75716,1000028369,No,Pacific Pointe South - Bldg 6,4022 Conant Street,Long Beach,CA,90806,US,LEED-NC v2009,44.0,Certified,12/10/13 0:00,Yes,Corporate: Privately Held,147546.0,342317.0,Industrial Manufacturing,Sares Regis Group,11/6/12 0:00
75717,1000028370,No,Pacific Pointe South - Bldg 7,4184 Conant Street,Long Beach,CA,90806,US,LEED-NC v2009,41.0,Certified,12/10/13 0:00,Yes,Corporate: Privately Held,120089.0,259189.0,Industrial Manufacturing,Sares Regis Group,11/6/12 0:00
75786,1000028479,No,Mile Hi Bakery,4700 East 51st Ave.,Denver,CO,80216,US,LEED-NC v2009,65.0,Gold,1/24/14 0:00,Yes,Corporate: Privately Held,126900.0,305820.0,Industrial Manufacturing,Mile Hi Bakery,11/8/12 0:00
75961,1000028707,No,Taylor Street Self Storage,645 Taylor St NE,Washington,DC,20017,US,LEED-NC v2009,45.0,Certified,3/28/14 0:00,Yes,Corporate: Privately Held,105666.0,68332.0,Warehouse and Distribution Center: Self Storage Units,"Taylor Street Storage Partners, LLC",11/20/12 0:00
76016,1000028776,No,City of Hope Kaplan Family Pavilion,1500 Duarte Road,Duarte,CA,91010,US,LEED-NC v2009,69.0,,,No,Corporate: Privately Held,7612.0,35288.0,Public Assembly: Other Assembly,City Of Hope,11/26/12 0:00
76052,1000028827,No,CDA Office Building,305 Leon Street,El Paso,TX,79901,US,LEED-NC v2009,61.0,Gold,4/10/15 0:00,Yes,Corporate: Privately Held,4448.0,11040.0,Office: Administrative/Professional,"Lion LOA, LLC",11/28/12 0:00
76073,1000028852,No,Bobrick HQ,"6905, 6935 Tujunga Avenue",Los Angeles,CA,91605,US,LEED-NC v2009,52.0,,,No,Corporate: Privately Held,111772.0,142533.0,Warehouse and Distribution Center: Warehouse,Bobrick HQ,11/29/12 0:00
76085,1000028865,No,ACCP-Glenview,2595 Patriot Blvd,Glenview,IL,60025,US,LEED-NC v2009,59.0,Silver,7/7/14 0:00,Yes,Corporate: Privately Held,48500.0,228688.0,Office: Administrative/Professional,ACCP,11/30/12 0:00
76100,1000028887,No,Horseshoe Casino,1525 Russel Street,Baltimore,MD,21201,US,LEED-NC v2009,61.0,Gold,8/8/14 0:00,Yes,Corporate: Privately Held,312102.0,466231.0,Public Assembly: Recreation,Caesars Entertainment,12/3/12 0:00
76199,1000029011,No,La Jolla Village Office Building Remodel,7835 Ivanhoe,La Jolla,CA,92037,US,LEED-NC v2009,46.0,Certified,6/24/14 0:00,Yes,Corporate: Privately Held,3417.0,7559.0,Office: Administrative/Professional,HAV Capital,12/6/12 0:00
76436,1000029325,No,Zappos HQ (Main Building),400 E. Stewart Ave,Las Vegas,NV,89101,US,LEED-NC v2009,66.0,Gold,5/13/14 0:00,Yes,Corporate: Privately Held,292411.0,204489.0,Office: Other Office,The Cadmus Group,12/19/12 0:00
76526,1000029447,No,HGV Hokulani Waikiki,2181 Kalakaua Avenue,Honolulu,HI,96815,US,LEED-NC v2009,42.0,Certified,11/11/14 0:00,Yes,Corporate: Privately Held,135428.0,28278.0,"Lodging: Hotel/Motel/Resort, Full Service",Hilton Worldwide,12/28/12 0:00
76663,1000029646,No,Crew Building,Pollard Road,Winter Haven,FL,33884,US,LEED-NC v2009,58.0,Silver,3/6/14 0:00,Yes,Corporate: Privately Held,2208.0,11338.0,Office: Other Office,Evansville Western Railway,1/8/13 0:00
76664,1000029647,No,Maintenance Building,Pollard Road,Winter Haven,FL,33884,US,LEED-NC v2009,59.0,Silver,3/6/14 0:00,Yes,Corporate: Privately Held,5710.0,23804.0,Service: Vehicle Service/Repair,Evansville Western Railway,1/8/13 0:00
76666,1000029649,No,Operations and Welfare Building,Pollard Road,Winter Haven,FL,33884,US,LEED-NC v2009,58.0,Silver,1/29/14 0:00,Yes,Corporate: Privately Held,3168.0,10025.0,Office: Other Office,Evansville Western Railway,1/8/13 0:00
76714,1000029708,No,Uptown Phase II Apartments,11401 Euclid Avenue,Cleveland,OH,44106,US,LEED-NC v2009,50.0,Silver,11/26/14 0:00,Yes,Corporate: Privately Held,119900.0,72265.0,Multi-Family Residential: Apartment,"MRN, Ltd.",1/10/13 0:00
76727,1000029728,No,PCNA Cincinnati,3105 River Road,Cincinnati,OH,45204,US,LEED-NC v2009,42.0,Certified,12/4/14 0:00,Yes,Corporate: Privately Held,57958.0,227274.0,Office: Mixed-Use,Peter Cremer North America,1/11/13 0:00
76915,1000029990,No,Hoosier Energy Headquarters,2501 South Cooperative Way,Bloomington,IN,47403,US,LEED-NC v2009,63.0,Gold,4/2/15 0:00,Yes,Corporate: Privately Held,83312.0,374785.0,Office: Administrative/Professional,"Hoosier Energy REC, Inc.",1/24/13 0:00
77034,1000030140,No,165 Cambridgepark Drive,165 Cambridgepark Drive,Cambridge,MA,2140,US,LEED-NC v2009,41.0,,,No,Corporate: Privately Held,250995.0,119274.0,Multi-Family Residential: Apartment,Hines Interests Limited Partnership,1/29/13 0:00
77180,1000030325,No,Norwood Medical Building 7,2012 Webster St.,Dayton,OH,45404,US,LEED-NC v2009,57.0,Silver,5/7/14 0:00,Yes,Corporate: Privately Held,54000.0,143748.0,Industrial Manufacturing,"KBK Five Properties, LLC",2/6/13 0:00
77204,1000030353,No,Creekside Clubhouse,303 Maple Tree Drive,Pasadena,MD,21060,US,LEED-NC v2009,50.0,Silver,10/31/14 0:00,Yes,Corporate: Privately Held,4601.0,19664.0,Multi-Family Residential: Apartment,Atapco Properties,2/7/13 0:00
77511,1000030762,No,FedEx West Henderson Business Centre,Bowes Avenue And Executive Airport Drive,Henderson,NV,89044,US,LEED-NC v2009,50.0,Silver,9/10/14 0:00,Yes,Corporate: Privately Held,293870.0,1556519.0,"Warehouse and Distribution Center: Nonrefrigerated, Distribu",Suncap,2/21/13 0:00
77732,1000031056,No,BMW Build to Suit - Prologis Park 20/35,2101 Danieldale Road,Lancaster,TX,75134,US,LEED-NC v2009,52.0,Silver,7/30/14 0:00,Yes,Corporate: Privately Held,282349.0,845064.0,Warehouse and Distribution Center: Warehouse,Prologis,3/5/13 0:00
77780,1000031132,No,Royal Farms 169,6201 Pulaski Hwy,Baltimore,MD,21205,US,LEED-NC v2009,44.0,Certified,2/11/14 0:00,Yes,Corporate: Privately Held,5125.0,233145.0,Retail: Convenience Store,Royal Farms,3/7/13 0:00
77973,1000031384,No,Courtyard Marriott Darden Campus,10300 South John Young Parkway,Orlando,FL,32837,US,LEED-NC v2009,50.0,,,No,Corporate: Privately Held,79125.0,111952.0,"Lodging: Hotel/Motel/Resort, Select Service","Concord Orlando JYP Hotels, LLC",3/20/13 0:00
78031,1000031446,No,Southstar Lofts,Broad And South Street,Philadelphia,PA,19147,US,LEED-NC v2009,51.0,Silver,9/29/14 0:00,Yes,Corporate: Privately Held,100882.0,23656.0,Multi-Family Residential: Apartment,Above Green,3/22/13 0:00
78088,1000031515,No,Homewood Suites-Charlottesville VA,"2036, India Road",Charlottesville,VA,22901,US,LEED-NC v2009,42.0,Certified,3/30/15 0:00,Yes,Corporate: Privately Held,108970.0,135687.0,"Lodging: Hotel/Motel/Resort, Limited Service","Albemarle Suites, LLC",3/26/13 0:00
78160,1000031608,No,Edgewood Studio,3415 8th Street NE,Washington,DC,20017,US,LEED-NC v2009,47.0,Certified,8/14/14 0:00,Yes,Corporate: Privately Held,3003.0,11369.0,Public Assembly: Other Assembly,Bozzuto,3/29/13 0:00
78173,1000031627,No,Matick Chevrolet,14001 Telegraph Rd.,Redford Charter Township,MI,48239,US,LEED-NC v2009,53.0,Silver,9/22/14 0:00,Yes,Corporate: Privately Held,116675.0,490760.0,Retail: Vehicle Dealership,"Matick Family, LLC",4/1/13 0:00
78301,1000031830,No,New Belgium Brewing - Liquid Center,21 Craven Street,Asheville,NC,28806,US,LEED-NC v2009,47.0,,,No,Corporate: Privately Held,5408.0,253521.0,Retail: Restaurant/Cafeteria,New Belgium Brewing Company,4/8/13 0:00
78600,1000032234,No,Medline - Katy TX,Tract 2,Katy,TX,77423,US,LEED-NC v2009,42.0,Certified,5/7/14 0:00,Yes,Corporate: Privately Held,505990.0,2024280.0,"Warehouse and Distribution Center: Nonrefrigerated, Distribu","Medline Industries, Inc",4/24/13 0:00
78602,1000032236,No,Medline - Maumelle AR,615 Sharkey Drive,Maumelle,AR,72113,US,LEED-NC v2009,40.0,Certified,12/4/13 0:00,Yes,Corporate: Privately Held,102120.0,871200.0,"Warehouse and Distribution Center: Nonrefrigerated, Distribu","Medline Industries, Inc",4/24/13 0:00
78672,1000032318,No,GESA Credit Union Road 68 Branch,North Road 68 And Sandifur Parkway,Pasco,WA,99301,US,LEED-NC v2009,42.0,Certified,11/26/14 0:00,Yes,Corporate: Privately Held,6254.0,74400.0,Retail: Bank Branch,GESA Credit Union,4/29/13 0:00
79148,1000032940,No,GESA Credit Union Duportail Branch,Duportail Street And Kennedy Road,Richland,WA,99352,US,LEED-NC v2009,41.0,Certified,12/1/14 0:00,Yes,Corporate: Privately Held,6254.0,44738.0,Retail: Bank Branch,GESA Credit Union,5/23/13 0:00
79306,1000033134,No,NBCUniversal,4805 Amon Carter Blvd.,Fort Worth,TX,76155,US,LEED-NC v2009,48.0,,,No,Corporate: Privately Held,75026.0,352971.0,Office: Other Office,KDC,6/3/13 0:00
79308,1000033137,No,Homewood Suites Brickell,1750/1760 SW 1st Avenue,Miami,FL,33129,US,LEED-NC v2009,45.0,,,No,Corporate: Privately Held,87270.0,15000.0,"Lodging: Hotel/Motel/Resort, Limited Service",Baywood Hotels,6/3/13 0:00
79351,1000033198,No,Cuyahoga County Headquarters,2079 East 9th Street,Cleveland,OH,44113,US,LEED-NC v2009,57.0,,,No,Corporate: Privately Held,231788.0,31354.0,Office: Government,Geis Companies,6/5/13 0:00
79461,1000033352,No,Cutler Bay Centre,11150 SW 211 Street,Cutler Bay,FL,33189,US,LEED-NC v2009,44.0,,,No,Corporate: Privately Held,97000.0,74628.0,Multi-Family Residential: Apartment,Cutler Bay Centre Associates,6/11/13 0:00
79698,1000033675,No,Fastpark Indianapolis,8550 Stansted Road,Indianapolis,IN,46241,US,LEED-NC v2009,43.0,Certified,8/27/14 0:00,Yes,Corporate: Privately Held,3772.0,185879.0,Office: Other Office,Fastpark,6/25/13 0:00
79989,1000034052,No,Method Products PBC,720 East 111th Street,Chicago,IL,60628,US,LEED-NC v2009,86.0,Platinum,3/31/15 0:00,Yes,Corporate: Privately Held,157660.0,924213.0,Industrial Manufacturing,Method,7/11/13 0:00
80033,1000034105,No,Crothall Laundry Facility - MANTECA,Airport Way,Manteca,CA,95337,US,LEED-NC v2009,42.0,Certified,9/24/14 0:00,Yes,Corporate: Privately Held,60150.0,204120.0,Warehouse and Distribution Center: Warehouse,CenterPoint Properties,7/15/13 0:00
80072,1000034147,No,Cape Associates Eastham Office,325 Massasoit Road,Eastham,MA,2642,US,LEED-NC v2009,54.0,,,No,Corporate: Privately Held,5063.0,20006.0,Office: Mixed-Use,"Cape Associates, Inc.",7/17/13 0:00
80094,1000034183,No,Woodbolt Headquarters,3891 Traditions Dr,Bryan,TX,77807,US,LEED-NC v2009,47.0,Certified,5/30/14 0:00,Yes,Corporate: Privately Held,26600.0,154785.0,Office: Administrative/Professional,Woodbolt,7/18/13 0:00
80151,1000034259,No,CVS at Wilde Lake,5405 Lynx Lane,Columbia,MD,21044,US,LEED-NC v2009,47.0,Certified,5/12/15 0:00,Yes,Corporate: Privately Held,13600.0,444876.0,Retail: Convenience Store,CVS Caremark,7/22/13 0:00
80156,1000034264,No,Owens and Minor,1160 Marquette Street,Cleveland,OH,44114,US,LEED-NC v2009,41.0,,,No,Corporate: Privately Held,75000.0,379631.0,"Warehouse and Distribution Center: Nonrefrigerated, Distribu","BCP Cleveland, LLC",7/22/13 0:00
80320,1000034497,No,UMS Manuf/Schluter Systems Whse Addition,26 Werner Schluter Way,Plattsburgh,NY,12901,US,LEED-NC v2009,61.0,Gold,4/27/15 0:00,Yes,Corporate: Privately Held,73343.0,154685.0,Warehouse: General,Dahltan Ent. Inc.,8/1/13 0:00
80456,1000034693,No,FirstBank Headquarters Expansion,12345 W. Colfax,Lakewood,CO,80215,US,LEED-NC v2009,42.0,,,No,Corporate: Privately Held,133679.0,245136.0,Office: Financial,FirstBank Holding Company,8/9/13 0:00
80517,1000034780,No,LL Bean Outdoor Discovery Center,Marietta Lane,Freeport,ME,4032,US,LEED-NC v2009,45.0,Certified,5/6/15 0:00,Yes,Corporate: Privately Held,7066.0,350000.0,Retail: Other Retail,"LL Bean, Inc",8/13/13 0:00
80550,1000034822,No,Pembroke Pines Clubhouse Phase II,400 S.W. 103rd Avenue,Pembroke Pines,FL,33025,US,LEED-NC v2009,43.0,,,No,Corporate: Privately Held,6823.0,34613.0,Public Assembly: Other Assembly,Mill Creek Residential Trust,8/15/13 0:00
80689,1000035046,No,AN Chevrolet of Gilbert,East Pecos Road And South Val Vista Dr,Gilbert,AZ,85297,US,LEED-NC v2009,43.0,,,No,Corporate: Privately Held,70362.0,660160.0,Retail: Vehicle Dealership,AutoNation,8/26/13 0:00
80759,1000035143,No,L Oreal ACD Expansion,3435 Altamoore Drive,Dallas,TX,75241,US,LEED-NC v2009,40.0,Certified,4/2/15 0:00,Yes,Corporate: Privately Held,48000.0,237520.0,Warehouse: General,Ridge Property Trust,8/29/13 0:00
81232,1000035785,No,GOLDEN STATE FOODS,47TH STREET,MCCOOK,IL,60525,US,LEED-NC v2009,60.0,Gold,11/13/14 0:00,Yes,Corporate: Privately Held,156691.0,654406.0,Warehouse and Distribution Center: Refrigerated,Golden State Foods,9/24/13 0:00
81312,1000035894,No,Roddenberry Beck Building,11526 Burbank Blvd,Studio City,CA,91601,US,LEED-NC v2009,59.0,,,No,Corporate: Privately Held,6512.0,5768.0,Office: Administrative/Professional,Roddenberry,9/30/13 0:00
81463,1000036106,No,Aeroterm Office Renovation,201 West Street,Annapolis,MD,21401,US,LEED-NC v2009,61.0,,,No,Corporate: Privately Held,15028.0,34240.0,Office: Administrative/Professional,Aeroterm Properties LLC,10/9/13 0:00
81485,1000036133,No,Island Digestive Health Center,471 Montauk Hwy,West Islip,NY,11795,US,LEED-NC v2009,40.0,,,No,Corporate: Privately Held,6970.0,32590.0,"Health Care: Outpatient, Office (Diagnostic)",Physicians Endoscopy,10/10/13 0:00
81533,1000036206,No,Inland Empire Global Logistics Center,16110 Cosmos Street,Moreno Valley,CA,92551,US,LEED-NC v2009,51.0,Silver,12/8/14 0:00,Yes,Corporate: Privately Held,1472184.0,3167121.0,"Warehouse and Distribution Center: Nonrefrigerated, Distribu","FR/CAL INDIAN AVENNUE, Llc",10/14/13 0:00
81944,1000036775,No,Freeman Chicago Facility,8201 W 47th Street,McCook,IL,60525,US,LEED-NC v2009,51.0,Silver,11/7/14 0:00,Yes,Corporate: Privately Held,365359.0,1166090.0,"Warehouse and Distribution Center: Nonrefrigerated, Distribu","Bridge McCook I, LLC",11/4/13 0:00
82041,1000036901,No,Royal Farms 191,11119 McCormick,Hunt Valley,MD,21031,US,LEED-NC v2009,44.0,Certified,9/22/14 0:00,Yes,Corporate: Privately Held,5125.0,145220.0,Retail: Convenience Store,Royal Farms,11/7/13 0:00
82334,1000037306,No,HS Warehouse,920 Citation Boulevard,Lexington,KY,40511,US,LEED-NC v2009,42.0,Certified,4/13/15 0:00,Yes,Corporate: Privately Held,72460.0,470971.0,Warehouse: Nonrefrigerated Distribution/Shipping,"Denham Blythe Properties, LLC",11/25/13 0:00
82342,1000037316,No,OMNOVA Solutions,25435 Harvard Road,Beachwood,OH,44122,US,LEED-NC v2009,44.0,Certified,5/18/15 0:00,Yes,Corporate: Privately Held,59550.0,370160.0,Office: Administrative/Professional,OMNOVA Solutions,11/25/13 0:00
82504,1000037516,No,New River 3,510 SE 5th Avenue,Fort Lauderdale,FL,33301,US,LEED-NC v2009,48.0,,,No,Corporate: Privately Held,268237.0,20857.0,Multi-Family Residential: Apartment,"American Land Ventures, LLC",12/2/13 0:00
83174,1000038503,No,Intuit Marine Way,2632 Marine Way,Mountain View,CA,94043,US,LEED-NC v2009,72.0,,,No,Corporate: Privately Held,185400.0,167432.0,Office: Administrative/Professional,Intuit,1/17/14 0:00
83427,1000038888,No,Royal Farms 196,3701 Kirkwood Highway,Mill Creek,DE,19808,US,LEED-NC v2009,47.0,Certified,9/22/14 0:00,Yes,Corporate: Privately Held,5125.0,106038.0,Retail: Convenience Store,Royal Farms,1/31/14 0:00
83863,1000039478,No,De Forest Industrial,3790 De Forest Circle,Jurupa Valley,CA,91752,US,LEED-NC v2009,40.0,,,No,Corporate: Privately Held,200731.0,479724.0,"Warehouse and Distribution Center: Nonrefrigerated, Distribu",Investment Building Group,2/20/14 0:00
83942,1000039584,No,BMW of El Cajon,725 El Cajon Boulevard,El Cajon,CA,92020,US,LEED-NC v2009,64.0,Gold,9/2/14 0:00,Yes,Corporate: Privately Held,39136.0,169345.0,Retail: Vehicle Dealership,Sunroad EC Land Inc.,2/25/14 0:00
84919,1000040955,No,Ridgeview Built to Suit,14105 Kirkham Way,Poway,CA,92101,US,LEED-NC v2009,42.0,Certified,4/14/15 0:00,Yes,Corporate: Privately Held,115301.0,,Office: Other Office,"HCP, Inc.",3/31/14 0:00
86761,1000043346,No,JE Dunn Office Renovation,2555 Cumberland Pkwy,Atlanta,GA,30339,US,LEED-NC v2009,60.0,,,No,Corporate: Privately Held,33000.0,,Office: Other Office,"Dunn Realty, Inc.",6/10/14 0:00
87459,1000044247,No,Royal Farms 205,3601 Victory Blvd,Portsmouth,VA,23701,US,LEED-NC v2009,44.0,Certified,3/31/15 0:00,Yes,Corporate: Privately Held,5166.0,,Retail: Convenience Store,Royal Farms,6/26/14 0:00
91766,1000049504,No,Graybar - LACA2,2205 Mount Vernon Avenue,Pomona,CA,91768,US,LEED-NC v2009,43.0,Certified,5/7/15 0:00,Yes,Corporate: Privately Held,238232.0,,Warehouse: Nonrefrigerated Distribution/Shipping,Graybar,9/26/14 0:00
